{
  "type": "FeatureCollection",
  "generator": "overpass-turbo",
  "copyright": "The data included in this document is from www.openstreetmap.org. The data is made available under ODbL.",
  "timestamp": "2024-12-05T20:32:54Z",
  "features": [
    {
      "type": "Feature",
      "properties": {
        "@id": "node/468916502",
        "name": "南京东路",
        "name:en": "East Nanjing Road",
        "name:zh": "南京东路",
        "name:zh-Hans": "南京东路",
        "name:zh-Hant": "南京東路",
        "network": "上海地铁",
        "note": "2号线 - For Line 2 - 请不要合并",
        "public_transport": "station",
        "railway": "station",
        "station": "subway",
        "subway": "yes",
        "wheelchair": "yes",
        "wikidata": "Q1073609",
        "wikipedia": "zh:南京東路站"
      },
      "geometry": {
        "type": "Point",
        "coordinates": [
          121.4792291,
          31.2391239
        ]
      },
      "id": "node/468916502"
    },
    {
      "type": "Feature",
      "properties": {
        "@id": "node/469787970",
        "name": "新闸路",
        "name:en": "Xinzha Road",
        "network": "上海地铁",
        "public_transport": "station",
        "railway": "station",
        "station": "subway",
        "subway": "yes",
        "wheelchair": "yes",
        "wikidata": "Q922121"
      },
      "geometry": {
        "type": "Point",
        "coordinates": [
          121.4636467,
          31.2405472
        ]
      },
      "id": "node/469787970"
    },
    {
      "type": "Feature",
      "properties": {
        "@id": "node/469788001",
        "name": "中山北路",
        "name:en": "North Zhongshan Road",
        "network": "上海地铁",
        "public_transport": "station",
        "railway": "station",
        "station": "subway",
        "subway": "yes",
        "wikidata": "Q288232"
      },
      "geometry": {
        "type": "Point",
        "coordinates": [
          121.45447,
          31.2614891
        ]
      },
      "id": "node/469788001"
    },
    {
      "type": "Feature",
      "properties": {
        "@id": "node/470079010",
        "name": "延长路",
        "name:en": "Yanchang Road",
        "network": "上海地铁",
        "public_transport": "station",
        "railway": "station",
        "station": "subway",
        "subway": "yes",
        "wikidata": "Q3269902"
      },
      "geometry": {
        "type": "Point",
        "coordinates": [
          121.4510121,
          31.2732429
        ]
      },
      "id": "node/470079010"
    },
    {
      "type": "Feature",
      "properties": {
        "@id": "node/470079347",
        "name": "上海马戏城",
        "name:en": "Shanghai Circus World",
        "network": "上海地铁",
        "public_transport": "station",
        "railway": "station",
        "station": "subway",
        "subway": "yes",
        "wikidata": "Q2251811"
      },
      "geometry": {
        "type": "Point",
        "coordinates": [
          121.4475394,
          31.2811762
        ]
      },
      "id": "node/470079347"
    },
    {
      "type": "Feature",
      "properties": {
        "@id": "node/470637744",
        "name": "张江高科",
        "name:en": "Zhangjiang Hi-Tech Park",
        "network": "上海地铁",
        "public_transport": "station",
        "railway": "station",
        "station": "subway",
        "subway": "yes",
        "wheelchair": "no",
        "wikidata": "Q1074052"
      },
      "geometry": {
        "type": "Point",
        "coordinates": [
          121.5833523,
          31.2039914
        ]
      },
      "id": "node/470637744"
    },
    {
      "type": "Feature",
      "properties": {
        "@id": "node/471013542",
        "name": "漕宝路",
        "name:en": "Caobao Road",
        "network": "上海地铁",
        "public_transport": "station",
        "railway": "station",
        "station": "subway",
        "subway": "yes"
      },
      "geometry": {
        "type": "Point",
        "coordinates": [
          121.4303189,
          31.1700487
        ]
      },
      "id": "node/471013542"
    },
    {
      "type": "Feature",
      "properties": {
        "@id": "node/471013952",
        "name": "徐家汇",
        "name:en": "Xujiahui",
        "network": "上海地铁",
        "public_transport": "station",
        "railway": "station",
        "station": "subway",
        "subway": "yes"
      },
      "geometry": {
        "type": "Point",
        "coordinates": [
          121.4339035,
          31.1950755
        ]
      },
      "id": "node/471013952"
    },
    {
      "type": "Feature",
      "properties": {
        "@id": "node/471014085",
        "name": "衡山路",
        "name:en": "Hengshan Road",
        "network": "上海地铁",
        "public_transport": "station",
        "railway": "station",
        "station": "subway",
        "subway": "yes",
        "wikidata": "Q3269835"
      },
      "geometry": {
        "type": "Point",
        "coordinates": [
          121.4419408,
          31.2064527
        ]
      },
      "id": "node/471014085"
    },
    {
      "type": "Feature",
      "properties": {
        "@id": "node/471015395",
        "name": "陕西南路",
        "name:en": "South Shaanxi Road",
        "name:zh": "陕西南路",
        "name:zh-Hans": "陕西南路",
        "name:zh-Hant": "陕西南路",
        "network": "上海地铁",
        "public_transport": "station",
        "railway": "station",
        "station": "subway",
        "subway": "yes",
        "wheelchair": "yes"
      },
      "geometry": {
        "type": "Point",
        "coordinates": [
          121.4552697,
          31.2188995
        ]
      },
      "id": "node/471015395"
    },
    {
      "type": "Feature",
      "properties": {
        "@id": "node/471016169",
        "alt_name": "黄陂南路",
        "alt_name:en": "South Huangpi Road",
        "alt_name:zh": "黄陂南路",
        "name": "一大会址·黄陂南路",
        "name:en": "Site of the First CPC National Congress·South Huangpi Road",
        "name:zh": "一大会址·黄陂南路",
        "network": "上海地铁",
        "network:en": "Shanghai Metro",
        "public_transport": "station",
        "railway": "station",
        "station": "subway",
        "subway": "yes",
        "wikidata": "Q2383478"
      },
      "geometry": {
        "type": "Point",
        "coordinates": [
          121.4693495,
          31.2249337
        ]
      },
      "id": "node/471016169"
    },
    {
      "type": "Feature",
      "properties": {
        "@id": "node/471016943",
        "name": "上海科技馆",
        "name:en": "Shanghai Science & Technology Museum",
        "network": "上海地铁",
        "public_transport": "station",
        "railway": "station",
        "station": "subway",
        "subway": "yes",
        "wheelchair": "yes",
        "wikidata": "Q15276904"
      },
      "geometry": {
        "type": "Point",
        "coordinates": [
          121.5386617,
          31.2218914
        ]
      },
      "id": "node/471016943"
    },
    {
      "type": "Feature",
      "properties": {
        "@id": "node/471088265",
        "name": "南京西路",
        "name:en": "West Nanjing Road",
        "name:fa": "ایستگاه قطار",
        "network": "上海地铁",
        "public_transport": "station",
        "railway": "station",
        "station": "subway",
        "subway": "yes"
      },
      "geometry": {
        "type": "Point",
        "coordinates": [
          121.4560232,
          31.2318255
        ]
      },
      "id": "node/471088265"
    },
    {
      "type": "Feature",
      "properties": {
        "@id": "node/471091952",
        "name": "北新泾",
        "name:en": "Beixinjing",
        "network": "上海地铁",
        "public_transport": "station",
        "railway": "station",
        "station": "subway",
        "subway": "yes",
        "wikidata": "Q1039059"
      },
      "geometry": {
        "type": "Point",
        "coordinates": [
          121.3690974,
          31.2183955
        ]
      },
      "id": "node/471091952"
    },
    {
      "type": "Feature",
      "properties": {
        "@id": "node/471092256",
        "name": "淞虹路",
        "name:en": "Songhong Road",
        "network": "上海地铁",
        "public_transport": "station",
        "railway": "station",
        "station": "subway",
        "subway": "yes"
      },
      "geometry": {
        "type": "Point",
        "coordinates": [
          121.3558076,
          31.2199749
        ]
      },
      "id": "node/471092256"
    },
    {
      "type": "Feature",
      "properties": {
        "@id": "node/605019347",
        "name": "国家会展中心",
        "name:en": "National Exhibiation and Convention Center",
        "name:zh": "国家会展中心",
        "network": "上海地铁",
        "public_transport": "station",
        "railway": "station",
        "station": "subway",
        "subway": "yes",
        "wikidata": "Q986854"
      },
      "geometry": {
        "type": "Point",
        "coordinates": [
          121.2963152,
          31.1909315
        ]
      },
      "id": "node/605019347"
    },
    {
      "type": "Feature",
      "properties": {
        "@id": "node/605019372",
        "name": "虹桥2号航站楼",
        "name:en": "Hongqiao Airport Terminal 2",
        "name:zh": "虹桥2号航站楼",
        "name:zh-Hans": "虹桥2号航站楼",
        "name:zh-Hant": "虹橋2號航站樓",
        "network": "上海地铁",
        "note": "2号线 - Line 2",
        "public_transport": "station",
        "railway": "station",
        "station": "subway",
        "subway": "yes"
      },
      "geometry": {
        "type": "Point",
        "coordinates": [
          121.3216102,
          31.1964723
        ]
      },
      "id": "node/605019372"
    },
    {
      "type": "Feature",
      "properties": {
        "@id": "node/605024325",
        "name": "金科路",
        "name:en": "Jinke Road",
        "network": "上海地铁",
        "public_transport": "station",
        "railway": "station",
        "station": "subway",
        "subway": "yes",
        "wikidata": "Q986997"
      },
      "geometry": {
        "type": "Point",
        "coordinates": [
          121.597836,
          31.2064028
        ]
      },
      "id": "node/605024325"
    },
    {
      "type": "Feature",
      "properties": {
        "@id": "node/605025081",
        "name": "广兰路",
        "name:en": "Guanglan Road",
        "network": "上海地铁",
        "public_transport": "station",
        "railway": "station",
        "station": "subway",
        "subway": "yes",
        "wikidata": "Q986866"
      },
      "geometry": {
        "type": "Point",
        "coordinates": [
          121.616873,
          31.2131129
        ]
      },
      "id": "node/605025081"
    },
    {
      "type": "Feature",
      "properties": {
        "@id": "node/605027433",
        "name": "唐镇",
        "name:en": "Tangzhen",
        "name:zh": "唐镇",
        "network": "上海地铁",
        "public_transport": "station",
        "railway": "station",
        "station": "subway",
        "subway": "yes",
        "wikidata": "Q986837"
      },
      "geometry": {
        "type": "Point",
        "coordinates": [
          121.6518673,
          31.2163796
        ]
      },
      "id": "node/605027433"
    },
    {
      "type": "Feature",
      "properties": {
        "@id": "node/605027658",
        "name": "创新中路",
        "name:en": "Middle Chuangxin Road",
        "name:zh": "创新中路",
        "network": "上海地铁",
        "public_transport": "station",
        "railway": "station",
        "station": "subway",
        "subway": "yes",
        "wikidata": "Q986797"
      },
      "geometry": {
        "type": "Point",
        "coordinates": [
          121.6698203,
          31.2155336
        ]
      },
      "id": "node/605027658"
    },
    {
      "type": "Feature",
      "properties": {
        "@id": "node/605032163",
        "name": "川沙",
        "name:en": "Chuansha",
        "name:zh": "川沙",
        "network": "上海地铁",
        "public_transport": "station",
        "railway": "station",
        "station": "subway",
        "subway": "yes",
        "wikidata": "Q986901",
        "wikipedia": "zh:川沙站"
      },
      "geometry": {
        "type": "Point",
        "coordinates": [
          121.6936866,
          31.1887574
        ]
      },
      "id": "node/605032163"
    },
    {
      "type": "Feature",
      "properties": {
        "@id": "node/605037023",
        "name": "凌空路",
        "name:en": "Lingkong Road",
        "name:zh": "凌空路",
        "network": "上海地铁",
        "public_transport": "station",
        "railway": "station",
        "station": "subway",
        "subway": "yes",
        "wikidata": "Q986851",
        "wikipedia": "zh:凌空路站"
      },
      "geometry": {
        "type": "Point",
        "coordinates": [
          121.7195131,
          31.194826
        ]
      },
      "id": "node/605037023"
    },
    {
      "type": "Feature",
      "properties": {
        "@id": "node/605037513",
        "name": "华夏东路",
        "name:en": "East Huaxia Road",
        "network": "上海地铁",
        "public_transport": "station",
        "railway": "station",
        "station": "subway",
        "subway": "yes",
        "wikidata": "Q987210"
      },
      "geometry": {
        "type": "Point",
        "coordinates": [
          121.6767066,
          31.1988574
        ]
      },
      "id": "node/605037513"
    },
    {
      "type": "Feature",
      "properties": {
        "@id": "node/622194147",
        "name": "枫桥路",
        "name:en": "Fengqiao Road",
        "name:zh": "枫桥路",
        "name:zh-Hans": "枫桥路",
        "name:zh-Hant": "楓橋路",
        "network": "上海地铁",
        "public_transport": "station",
        "railway": "station",
        "station": "subway",
        "subway": "yes",
        "wheelchair": "yes",
        "wikidata": "Q5956780",
        "wikipedia": "zh:枫桥路站"
      },
      "geometry": {
        "type": "Point",
        "coordinates": [
          121.4057154,
          31.2443442
        ]
      },
      "id": "node/622194147"
    },
    {
      "type": "Feature",
      "properties": {
        "@id": "node/622194318",
        "name": "真如",
        "name:en": "Zhenru",
        "name:zh": "真如",
        "name:zh-Hans": "真如",
        "name:zh-Hant": "真如",
        "network": "上海地铁",
        "public_transport": "station",
        "railway": "station",
        "station": "subway",
        "subway": "yes",
        "wheelchair": "yes",
        "wikidata": "Q6121354",
        "wikipedia": "zh:真如站"
      },
      "geometry": {
        "type": "Point",
        "coordinates": [
          121.402647,
          31.2527094
        ]
      },
      "id": "node/622194318"
    },
    {
      "type": "Feature",
      "properties": {
        "@id": "node/622196171",
        "name": "李子园",
        "name:en": "Liziyuan",
        "name:zh": "李子园",
        "name:zh-Hans": "李子园",
        "name:zh-Hant": "李子園",
        "network": "上海地铁",
        "public_transport": "station",
        "railway": "station",
        "station": "subway",
        "subway": "yes",
        "wheelchair": "yes",
        "wikidata": "Q5957031",
        "wikipedia": "zh:李子园站"
      },
      "geometry": {
        "type": "Point",
        "coordinates": [
          121.3854727,
          31.270731
        ]
      },
      "id": "node/622196171"
    },
    {
      "type": "Feature",
      "properties": {
        "@id": "node/622196229",
        "name": "祁连山路",
        "name:en": "Qilianshan Road",
        "name:zh": "祁连山路",
        "name:zh-Hans": "祁连山路",
        "name:zh-Hant": "祁連山路",
        "network": "上海地铁",
        "public_transport": "station",
        "railway": "station",
        "station": "subway",
        "subway": "yes",
        "wheelchair": "yes",
        "wikidata": "Q5957291",
        "wikipedia": "zh:祁连山路站"
      },
      "geometry": {
        "type": "Point",
        "coordinates": [
          121.3722123,
          31.273409
        ]
      },
      "id": "node/622196229"
    },
    {
      "type": "Feature",
      "properties": {
        "@id": "node/622196496",
        "name": "武威路",
        "name:en": "Wuwei Road",
        "name:zh": "武威路",
        "name:zh-Hans": "武威路",
        "name:zh-Hant": "武威路",
        "network": "上海地铁",
        "public_transport": "station",
        "railway": "station",
        "station": "subway",
        "subway": "yes"
      },
      "geometry": {
        "type": "Point",
        "coordinates": [
          121.3600778,
          31.2783683
        ]
      },
      "id": "node/622196496"
    },
    {
      "type": "Feature",
      "properties": {
        "@id": "node/622580357",
        "name": "桃浦新村",
        "name:en": "Taopu Xincun",
        "name:zh": "桃浦新村",
        "name:zh-Hans": "桃浦新村",
        "name:zh-Hant": "桃浦新村",
        "network": "上海地铁",
        "public_transport": "station",
        "railway": "station",
        "station": "subway",
        "subway": "yes",
        "wheelchair": "yes",
        "wikidata": "Q5956971",
        "wikipedia": "zh:桃浦新村站"
      },
      "geometry": {
        "type": "Point",
        "coordinates": [
          121.3450707,
          31.2834828
        ]
      },
      "id": "node/622580357"
    },
    {
      "type": "Feature",
      "properties": {
        "@id": "node/1542037120",
        "name": "虹桥1号航站楼",
        "name:en": "Hongqiao Airport Terminal 1",
        "name:zh": "虹桥1号航站楼",
        "network": "上海地铁",
        "public_transport": "station",
        "railway": "station",
        "station": "subway",
        "subway": "yes",
        "wikidata": "Q986492"
      },
      "geometry": {
        "type": "Point",
        "coordinates": [
          121.3427146,
          31.1932684
        ]
      },
      "id": "node/1542037120"
    },
    {
      "type": "Feature",
      "properties": {
        "@id": "node/2448270609",
        "name": "三林东",
        "name:en": "East Sanlin",
        "network": "上海地铁",
        "public_transport": "station",
        "railway": "station",
        "station": "subway",
        "subway": "yes"
      },
      "geometry": {
        "type": "Point",
        "coordinates": [
          121.5188767,
          31.1486404
        ]
      },
      "id": "node/2448270609"
    },
    {
      "type": "Feature",
      "properties": {
        "@id": "node/2448270613",
        "name": "龙华",
        "name:en": "Longhua",
        "network": "上海地铁",
        "public_transport": "station",
        "railway": "station",
        "station": "subway",
        "subway": "yes"
      },
      "geometry": {
        "type": "Point",
        "coordinates": [
          121.4486885,
          31.1748452
        ]
      },
      "id": "node/2448270613"
    },
    {
      "type": "Feature",
      "properties": {
        "@id": "node/2448270617",
        "name": "龙耀路",
        "name:en": "Longyao Road",
        "network": "上海地铁",
        "public_transport": "station",
        "railway": "station",
        "station": "subway",
        "subway": "yes",
        "wikidata": "Q11178088"
      },
      "geometry": {
        "type": "Point",
        "coordinates": [
          121.4551734,
          31.1615085
        ]
      },
      "id": "node/2448270617"
    },
    {
      "type": "Feature",
      "properties": {
        "@id": "node/2448270625",
        "name": "浦三路",
        "name:en": "Pusan Road",
        "network": "上海地铁",
        "public_transport": "station",
        "railway": "station",
        "station": "subway",
        "subway": "yes"
      },
      "geometry": {
        "type": "Point",
        "coordinates": [
          121.5350543,
          31.1531902
        ]
      },
      "id": "node/2448270625"
    },
    {
      "type": "Feature",
      "properties": {
        "@id": "node/2448270629",
        "name": "三林",
        "name:en": "Sanlin",
        "network": "上海地铁",
        "public_transport": "station",
        "railway": "station",
        "station": "subway",
        "subway": "yes",
        "wikidata": "Q10866167"
      },
      "geometry": {
        "type": "Point",
        "coordinates": [
          121.507929,
          31.1453958
        ]
      },
      "id": "node/2448270629"
    },
    {
      "type": "Feature",
      "properties": {
        "@id": "node/2448270633",
        "name": "上海游泳馆",
        "name:en": "Shanghai Swimming Center",
        "network": "上海地铁",
        "public_transport": "station",
        "railway": "station",
        "station": "subway",
        "subway": "yes"
      },
      "geometry": {
        "type": "Point",
        "coordinates": [
          121.4367543,
          31.1812817
        ]
      },
      "id": "node/2448270633"
    },
    {
      "type": "Feature",
      "properties": {
        "@id": "node/2448270636",
        "name": "徐家汇",
        "name:en": "Xujiahui",
        "network": "上海地铁",
        "public_transport": "station",
        "railway": "station",
        "station": "subway",
        "subway": "yes"
      },
      "geometry": {
        "type": "Point",
        "coordinates": [
          121.4323653,
          31.1974902
        ]
      },
      "id": "node/2448270636"
    },
    {
      "type": "Feature",
      "properties": {
        "@id": "node/2448270639",
        "name": "云锦路",
        "name:en": "Yunjin Road",
        "network": "上海地铁",
        "public_transport": "station",
        "railway": "station",
        "station": "subway",
        "subway": "yes"
      },
      "geometry": {
        "type": "Point",
        "coordinates": [
          121.4538663,
          31.1695006
        ]
      },
      "id": "node/2448270639"
    },
    {
      "type": "Feature",
      "properties": {
        "@id": "node/2914198802",
        "name": "秀沿路",
        "name:en": "Xiuyan Road",
        "name:zh": "秀沿路",
        "network": "上海地铁",
        "old_name": "康桥东",
        "public_transport": "station",
        "railway": "station",
        "station": "subway",
        "subway": "yes",
        "wikidata": "Q11063893"
      },
      "geometry": {
        "type": "Point",
        "coordinates": [
          121.5942175,
          31.1403484
        ]
      },
      "id": "node/2914198802"
    },
    {
      "type": "Feature",
      "properties": {
        "@id": "node/3506766919",
        "name": "兆丰路",
        "name:en": "Zhaofeng Road",
        "network": "上海地铁",
        "public_transport": "station",
        "railway": "station",
        "station": "subway",
        "subway": "yes",
        "wikidata": "Q10889885"
      },
      "geometry": {
        "type": "Point",
        "coordinates": [
          121.1454617,
          31.2909
        ]
      },
      "id": "node/3506766919"
    },
    {
      "type": "Feature",
      "properties": {
        "@id": "node/4241260093",
        "name": "静安寺",
        "name:en": "Jing'an Temple",
        "name:zh": "静安寺",
        "network": "上海地铁",
        "public_transport": "station",
        "railway": "station",
        "station": "subway",
        "subway": "yes"
      },
      "geometry": {
        "type": "Point",
        "coordinates": [
          121.4421389,
          31.2252923
        ]
      },
      "id": "node/4241260093"
    },
    {
      "type": "Feature",
      "properties": {
        "@id": "node/4269627924",
        "name": "康新公路",
        "name:en": "Kangxin Highway",
        "name:zh": "康新公路",
        "network": "上海地铁",
        "public_transport": "station",
        "railway": "station",
        "station": "subway",
        "subway": "yes",
        "wikidata": "Q19852499"
      },
      "geometry": {
        "type": "Point",
        "coordinates": [
          121.6131827,
          31.1326897
        ]
      },
      "id": "node/4269627924"
    },
    {
      "type": "Feature",
      "properties": {
        "@id": "node/4272855243",
        "name": "上海西站",
        "name:en": "Shanghai West Railway Station",
        "name:zh": "上海西站",
        "network": "上海地铁",
        "network:en": "Shanghai Metro",
        "public_transport": "station",
        "railway": "station",
        "station": "subway",
        "subway": "yes",
        "wikidata": "Q6859016",
        "wikipedia": "zh:上海西站站"
      },
      "geometry": {
        "type": "Point",
        "coordinates": [
          121.3967836,
          31.2645847
        ]
      },
      "id": "node/4272855243"
    },
    {
      "type": "Feature",
      "properties": {
        "@id": "node/4460193672",
        "name": "虹桥火车站",
        "name:en": "Hongqiao Railway Station",
        "name:zh": "虹桥火车站",
        "name:zh-Hans": "虹桥火车站",
        "name:zh-Hant": "虹橋火車站",
        "network": "上海地铁",
        "note": "2号线 - For Line 2 - 请不要合并",
        "public_transport": "station",
        "railway": "station",
        "station": "subway",
        "subway": "yes"
      },
      "geometry": {
        "type": "Point",
        "coordinates": [
          121.3137324,
          31.1959975
        ]
      },
      "id": "node/4460193672"
    },
    {
      "type": "Feature",
      "properties": {
        "@id": "node/4520492425",
        "building": "yes",
        "name": "中山公园",
        "name:en": "Zhongshan Park",
        "network": "上海地铁",
        "public_transport": "station",
        "railway": "station",
        "station": "subway",
        "subway": "yes",
        "wheelchair": "no"
      },
      "geometry": {
        "type": "Point",
        "coordinates": [
          121.4115608,
          31.2200642
        ]
      },
      "id": "node/4520492425"
    },
    {
      "type": "Feature",
      "properties": {
        "@id": "node/4520492882",
        "name": "威宁路",
        "name:en": "Weining Road",
        "network": "上海地铁",
        "public_transport": "station",
        "railway": "station",
        "station": "subway",
        "subway": "yes",
        "toilets:wheelchair": "yes",
        "wheelchair": "limited",
        "wikidata": "Q1038683"
      },
      "geometry": {
        "type": "Point",
        "coordinates": [
          121.3826767,
          31.2167836
        ]
      },
      "id": "node/4520492882"
    },
    {
      "type": "Feature",
      "properties": {
        "@id": "node/4559664169",
        "name": "外环路",
        "name:en": "Waihuanlu",
        "network": "上海地铁",
        "public_transport": "station",
        "railway": "station",
        "station": "subway",
        "subway": "yes"
      },
      "geometry": {
        "type": "Point",
        "coordinates": [
          121.3883771,
          31.1228094
        ]
      },
      "id": "node/4559664169"
    },
    {
      "type": "Feature",
      "properties": {
        "@id": "node/4559664170",
        "name": "莲花路",
        "name:en": "Lianhua Road",
        "network": "上海地铁",
        "public_transport": "station",
        "railway": "station",
        "station": "subway",
        "subway": "yes",
        "wikidata": "Q2348590"
      },
      "geometry": {
        "type": "Point",
        "coordinates": [
          121.3982877,
          31.1328327
        ]
      },
      "id": "node/4559664170"
    },
    {
      "type": "Feature",
      "properties": {
        "@id": "node/4559664184",
        "name": "锦江乐园",
        "name:en": "Jinjiang Park",
        "network": "上海地铁",
        "public_transport": "station",
        "railway": "station",
        "station": "subway",
        "subway": "yes",
        "wikidata": "Q2602908"
      },
      "geometry": {
        "type": "Point",
        "coordinates": [
          121.4095153,
          31.1440689
        ]
      },
      "id": "node/4559664184"
    },
    {
      "type": "Feature",
      "properties": {
        "@id": "node/4559664358",
        "name": "通河新村",
        "name:en": "Tonghe Xincun",
        "network": "上海地铁",
        "public_transport": "station",
        "railway": "station",
        "station": "subway",
        "subway": "yes",
        "wikidata": "Q3270061"
      },
      "geometry": {
        "type": "Point",
        "coordinates": [
          121.4369064,
          31.3329517
        ]
      },
      "id": "node/4559664358"
    },
    {
      "type": "Feature",
      "properties": {
        "@id": "node/4559664369",
        "name": "共康路",
        "name:en": "Gongkang Road",
        "network": "上海地铁",
        "public_transport": "station",
        "railway": "station",
        "station": "subway",
        "subway": "yes",
        "wikidata": "Q2894776"
      },
      "geometry": {
        "type": "Point",
        "coordinates": [
          121.4420271,
          31.3217011
        ]
      },
      "id": "node/4559664369"
    },
    {
      "type": "Feature",
      "properties": {
        "@id": "node/4559664370",
        "name": "彭浦新村",
        "name:en": "Pengpu Xincun",
        "network": "上海地铁",
        "public_transport": "station",
        "railway": "station",
        "station": "subway",
        "subway": "yes",
        "wikidata": "Q2224654"
      },
      "geometry": {
        "type": "Point",
        "coordinates": [
          121.4439361,
          31.3074944
        ]
      },
      "id": "node/4559664370"
    },
    {
      "type": "Feature",
      "properties": {
        "@id": "node/4559664371",
        "name": "汶水路",
        "name:en": "Wenshui Road",
        "network": "上海地铁",
        "public_transport": "station",
        "railway": "station",
        "station": "subway",
        "subway": "yes",
        "wikidata": "Q3270042"
      },
      "geometry": {
        "type": "Point",
        "coordinates": [
          121.4455881,
          31.2945322
        ]
      },
      "id": "node/4559664371"
    },
    {
      "type": "Feature",
      "properties": {
        "@id": "node/4562133829",
        "name": "惠南",
        "name:en": "Huinan",
        "name:zh": "惠南",
        "network": "上海地铁",
        "public_transport": "station",
        "railway": "station",
        "station": "subway",
        "subway": "yes"
      },
      "geometry": {
        "type": "Point",
        "coordinates": [
          121.7573174,
          31.056003
        ]
      },
      "id": "node/4562133829"
    },
    {
      "type": "Feature",
      "properties": {
        "@id": "node/4571430228",
        "name": "常熟路",
        "name:en": "Changshu Road",
        "network": "上海地铁",
        "public_transport": "station",
        "railway": "station",
        "station": "subway",
        "subway": "yes"
      },
      "geometry": {
        "type": "Point",
        "coordinates": [
          121.4464856,
          31.2151666
        ]
      },
      "id": "node/4571430228"
    },
    {
      "type": "Feature",
      "properties": {
        "@id": "node/5306355590",
        "name": "芦恒路",
        "name:en": "Luheng Road",
        "network": "上海地铁",
        "public_transport": "station",
        "railway": "station",
        "station": "subway",
        "subway": "yes",
        "wikidata": "Q986914"
      },
      "geometry": {
        "type": "Point",
        "coordinates": [
          121.4938183,
          31.1202135
        ]
      },
      "id": "node/5306355590"
    },
    {
      "type": "Feature",
      "properties": {
        "@id": "node/5306355591",
        "name": "凌兆新村",
        "name:en": "Lingzhao Xincun",
        "network": "上海地铁",
        "public_transport": "station",
        "railway": "station",
        "station": "subway",
        "subway": "yes",
        "wikidata": "Q986395"
      },
      "geometry": {
        "type": "Point",
        "coordinates": [
          121.4847752,
          31.14309
        ]
      },
      "id": "node/5306355591"
    },
    {
      "type": "Feature",
      "properties": {
        "@id": "node/5306355592",
        "name": "东方体育中心",
        "name:en": "Oriental Sports Center",
        "name:zh": "东方体育中心",
        "network": "上海地铁",
        "note": "8号线 - For Line 8 - 请不要合并",
        "public_transport": "station",
        "railway": "station",
        "station": "subway",
        "subway": "yes"
      },
      "geometry": {
        "type": "Point",
        "coordinates": [
          121.4758296,
          31.1554593
        ]
      },
      "id": "node/5306355592"
    },
    {
      "type": "Feature",
      "properties": {
        "@id": "node/5306355593",
        "name": "杨思",
        "name:en": "Yangsi",
        "network": "上海地铁",
        "public_transport": "station",
        "railway": "station",
        "station": "subway",
        "subway": "yes",
        "wikidata": "Q613785"
      },
      "geometry": {
        "type": "Point",
        "coordinates": [
          121.4890118,
          31.1630199
        ]
      },
      "id": "node/5306355593"
    },
    {
      "type": "Feature",
      "properties": {
        "@id": "node/5306355594",
        "name": "成山路",
        "name:en": "Chengshan Road",
        "network": "上海地铁",
        "public_transport": "station",
        "railway": "station",
        "station": "subway",
        "subway": "yes"
      },
      "geometry": {
        "type": "Point",
        "coordinates": [
          121.4917772,
          31.1727623
        ]
      },
      "id": "node/5306355594"
    },
    {
      "type": "Feature",
      "properties": {
        "@id": "node/5306355596",
        "name": "陆家浜路",
        "name:en": "Lujiabang Road",
        "network": "上海地铁",
        "note": "8号线 - For Line 8 - 请不要合并",
        "public_transport": "station",
        "railway": "station",
        "station": "subway",
        "subway": "yes"
      },
      "geometry": {
        "type": "Point",
        "coordinates": [
          121.4814802,
          31.2138544
        ]
      },
      "id": "node/5306355596"
    },
    {
      "type": "Feature",
      "properties": {
        "@id": "node/5306355597",
        "name": "老西门",
        "name:en": "Laoximen",
        "network": "上海地铁",
        "note": "8号线 - For Line 8 - 请不要合并",
        "public_transport": "station",
        "railway": "station",
        "station": "subway",
        "subway": "yes",
        "wheelchair": "yes"
      },
      "geometry": {
        "type": "Point",
        "coordinates": [
          121.4784338,
          31.2208466
        ]
      },
      "id": "node/5306355597"
    },
    {
      "type": "Feature",
      "properties": {
        "@id": "node/5306355598",
        "name": "大世界",
        "name:en": "Dashijie",
        "name:zh": "大世界",
        "name:zh-Hans": "大世界",
        "name:zh-Hant": "大世界",
        "network": "上海地铁",
        "public_transport": "station",
        "railway": "station",
        "station": "subway",
        "subway": "yes",
        "wikidata": "Q31005",
        "wikipedia": "zh:大世界站 (上海市)"
      },
      "geometry": {
        "type": "Point",
        "coordinates": [
          121.4749289,
          31.2291468
        ]
      },
      "id": "node/5306355598"
    },
    {
      "type": "Feature",
      "properties": {
        "@id": "node/5306355599",
        "name": "曲阜路",
        "name:en": "Qufu Road",
        "network": "上海地铁",
        "note": "8号线 - For Line 8 - 请不要合并",
        "public_transport": "station",
        "railway": "station",
        "station": "subway",
        "subway": "yes"
      },
      "geometry": {
        "type": "Point",
        "coordinates": [
          121.4669569,
          31.244194
        ]
      },
      "id": "node/5306355599"
    },
    {
      "type": "Feature",
      "properties": {
        "@id": "node/5306355600",
        "name": "中兴路",
        "name:en": "Zhongxing Road",
        "network": "上海地铁",
        "public_transport": "station",
        "railway": "station",
        "station": "subway",
        "subway": "yes",
        "wikidata": "Q876962"
      },
      "geometry": {
        "type": "Point",
        "coordinates": [
          121.4643534,
          31.255078
        ]
      },
      "id": "node/5306355600"
    },
    {
      "type": "Feature",
      "properties": {
        "@id": "node/5306355601",
        "name": "西藏北路",
        "name:en": "North Xizang Road",
        "network": "上海地铁",
        "public_transport": "station",
        "railway": "station",
        "station": "subway",
        "subway": "yes",
        "wikidata": "Q985984"
      },
      "geometry": {
        "type": "Point",
        "coordinates": [
          121.4645728,
          31.265566
        ]
      },
      "id": "node/5306355601"
    },
    {
      "type": "Feature",
      "properties": {
        "@id": "node/5306355602",
        "name": "曲阳路",
        "name:en": "Quyang Road",
        "network": "上海地铁",
        "public_transport": "station",
        "railway": "station",
        "station": "subway",
        "subway": "yes",
        "wikidata": "Q985967"
      },
      "geometry": {
        "type": "Point",
        "coordinates": [
          121.4857918,
          31.278536
        ]
      },
      "id": "node/5306355602"
    },
    {
      "type": "Feature",
      "properties": {
        "@id": "node/5306355603",
        "name": "四平路",
        "name:en": "Siping Road",
        "network": "上海地铁",
        "note": "10号线 - For Line 10 - 请不要合并",
        "public_transport": "station",
        "railway": "station",
        "station": "subway",
        "subway": "yes"
      },
      "geometry": {
        "type": "Point",
        "coordinates": [
          121.496992,
          31.2768579
        ]
      },
      "id": "node/5306355603"
    },
    {
      "type": "Feature",
      "properties": {
        "@id": "node/5306355604",
        "name": "鞍山新村",
        "name:en": "Anshan Xincun",
        "name:zh": "鞍山新村",
        "network": "上海地铁",
        "public_transport": "station",
        "railway": "station",
        "station": "subway",
        "subway": "yes",
        "wikidata": "Q985937"
      },
      "geometry": {
        "type": "Point",
        "coordinates": [
          121.5048087,
          31.2749873
        ]
      },
      "id": "node/5306355604"
    },
    {
      "type": "Feature",
      "properties": {
        "@id": "node/5306355605",
        "name": "江浦路",
        "name:en": "Jiangpu Road",
        "name:zh": "江浦路",
        "network": "上海地铁",
        "public_transport": "station",
        "railway": "station",
        "station": "subway",
        "subway": "yes",
        "wikidata": "Q877327"
      },
      "geometry": {
        "type": "Point",
        "coordinates": [
          121.5141937,
          31.2769932
        ]
      },
      "id": "node/5306355605"
    },
    {
      "type": "Feature",
      "properties": {
        "@id": "node/5306355606",
        "name": "黄兴路",
        "name:en": "Huangxing Road",
        "network": "上海地铁",
        "public_transport": "station",
        "railway": "station",
        "station": "subway",
        "subway": "yes",
        "wikidata": "Q985921"
      },
      "geometry": {
        "type": "Point",
        "coordinates": [
          121.5240955,
          31.2809549
        ]
      },
      "id": "node/5306355606"
    },
    {
      "type": "Feature",
      "properties": {
        "@id": "node/5306355607",
        "name": "延吉中路",
        "name:en": "Middle Yanji Road",
        "network": "上海地铁",
        "public_transport": "station",
        "railway": "station",
        "station": "subway",
        "subway": "yes",
        "wikidata": "Q986028"
      },
      "geometry": {
        "type": "Point",
        "coordinates": [
          121.5306115,
          31.2907317
        ]
      },
      "id": "node/5306355607"
    },
    {
      "type": "Feature",
      "properties": {
        "@id": "node/5306355608",
        "name": "黄兴公园",
        "name:en": "Huangxing Park",
        "network": "上海地铁",
        "public_transport": "station",
        "railway": "station",
        "station": "subway",
        "subway": "yes",
        "wikidata": "Q985958"
      },
      "geometry": {
        "type": "Point",
        "coordinates": [
          121.5288185,
          31.2978586
        ]
      },
      "id": "node/5306355608"
    },
    {
      "type": "Feature",
      "properties": {
        "@id": "node/5306355609",
        "name": "翔殷路",
        "name:en": "Xiangyin Road",
        "network": "上海地铁",
        "public_transport": "station",
        "railway": "station",
        "station": "subway",
        "subway": "yes",
        "wikidata": "Q986060"
      },
      "geometry": {
        "type": "Point",
        "coordinates": [
          121.5275779,
          31.3071133
        ]
      },
      "id": "node/5306355609"
    },
    {
      "type": "Feature",
      "properties": {
        "@id": "node/5306355610",
        "name": "嫩江路",
        "name:en": "Nenjiang Road",
        "network": "上海地铁",
        "public_transport": "station",
        "railway": "station",
        "station": "subway",
        "subway": "yes",
        "wikidata": "Q877318"
      },
      "geometry": {
        "type": "Point",
        "coordinates": [
          121.5276557,
          31.3167487
        ]
      },
      "id": "node/5306355610"
    },
    {
      "type": "Feature",
      "properties": {
        "@id": "node/5306355611",
        "name": "市光路",
        "name:en": "Shiguang Road",
        "network": "上海地铁",
        "public_transport": "station",
        "railway": "station",
        "station": "subway",
        "subway": "yes",
        "wikidata": "Q587811"
      },
      "geometry": {
        "type": "Point",
        "coordinates": [
          121.5276336,
          31.3247936
        ]
      },
      "id": "node/5306355611"
    },
    {
      "type": "Feature",
      "properties": {
        "@id": "node/5306402940",
        "name": "醉白池",
        "name:en": "Zuibaichi Park",
        "network": "上海地铁",
        "public_transport": "station",
        "railway": "station",
        "station": "subway",
        "subway": "yes"
      },
      "geometry": {
        "type": "Point",
        "coordinates": [
          121.2244749,
          31.0028512
        ]
      },
      "id": "node/5306402940"
    },
    {
      "type": "Feature",
      "properties": {
        "@id": "node/5306402941",
        "name": "松江体育中心",
        "name:en": "Songjiang Sports Center",
        "network": "上海地铁",
        "public_transport": "station",
        "railway": "station",
        "station": "subway",
        "subway": "yes"
      },
      "geometry": {
        "type": "Point",
        "coordinates": [
          121.2262371,
          31.0179937
        ]
      },
      "id": "node/5306402941"
    },
    {
      "type": "Feature",
      "properties": {
        "@id": "node/5306402942",
        "name": "松江新城",
        "name:en": "Songjiang Xincheng",
        "network": "上海地铁",
        "public_transport": "station",
        "railway": "station",
        "station": "subway",
        "subway": "yes",
        "wikidata": "Q1038297"
      },
      "geometry": {
        "type": "Point",
        "coordinates": [
          121.2262586,
          31.0322111
        ]
      },
      "id": "node/5306402942"
    },
    {
      "type": "Feature",
      "properties": {
        "@id": "node/5306402943",
        "name": "九亭",
        "name:en": "Jiuting",
        "network": "上海地铁",
        "public_transport": "station",
        "railway": "station",
        "station": "subway",
        "subway": "yes",
        "wikidata": "Q986094"
      },
      "geometry": {
        "type": "Point",
        "coordinates": [
          121.3141814,
          31.1393274
        ]
      },
      "id": "node/5306402943"
    },
    {
      "type": "Feature",
      "properties": {
        "@id": "node/5306402944",
        "name": "中春路",
        "name:en": "Zhongchun Road",
        "network": "上海地铁",
        "public_transport": "station",
        "railway": "station",
        "station": "subway",
        "subway": "yes",
        "wikidata": "Q986163"
      },
      "geometry": {
        "type": "Point",
        "coordinates": [
          121.3342041,
          31.1518349
        ]
      },
      "id": "node/5306402944"
    },
    {
      "type": "Feature",
      "properties": {
        "@id": "node/5306402945",
        "name": "七宝",
        "name:en": "Qibao",
        "network": "上海地铁",
        "public_transport": "station",
        "railway": "station",
        "station": "subway",
        "subway": "yes",
        "wikidata": "Q986096"
      },
      "geometry": {
        "type": "Point",
        "coordinates": [
          121.3442329,
          31.1573185
        ]
      },
      "id": "node/5306402945"
    },
    {
      "type": "Feature",
      "properties": {
        "@id": "node/5306402946",
        "name": "星中路",
        "name:en": "Xingzhong Road",
        "network": "上海地铁",
        "public_transport": "station",
        "railway": "station",
        "station": "subway",
        "subway": "yes",
        "wikidata": "Q985986"
      },
      "geometry": {
        "type": "Point",
        "coordinates": [
          121.3640463,
          31.1604802
        ]
      },
      "id": "node/5306402946"
    },
    {
      "type": "Feature",
      "properties": {
        "@id": "node/5306402947",
        "name": "合川路",
        "name:en": "Hechuan Road",
        "network": "上海地铁",
        "public_transport": "station",
        "railway": "station",
        "station": "subway",
        "subway": "yes",
        "wikidata": "Q985948"
      },
      "geometry": {
        "type": "Point",
        "coordinates": [
          121.3803488,
          31.1690009
        ]
      },
      "id": "node/5306402947"
    },
    {
      "type": "Feature",
      "properties": {
        "@id": "node/5306402948",
        "name": "漕河泾开发区",
        "name:en": "Caohejing Hi-Tech Park",
        "network": "上海地铁",
        "public_transport": "station",
        "railway": "station",
        "station": "subway",
        "subway": "yes",
        "wikidata": "Q985941"
      },
      "geometry": {
        "type": "Point",
        "coordinates": [
          121.3927647,
          31.1726774
        ]
      },
      "id": "node/5306402948"
    },
    {
      "type": "Feature",
      "properties": {
        "@id": "node/5306402949",
        "name": "桂林路",
        "name:en": "Guilin Road",
        "network": "上海地铁",
        "public_transport": "station",
        "railway": "station",
        "station": "subway",
        "subway": "yes",
        "wikidata": "Q1051823"
      },
      "geometry": {
        "type": "Point",
        "coordinates": [
          121.4136579,
          31.1769547
        ]
      },
      "id": "node/5306402949"
    },
    {
      "type": "Feature",
      "properties": {
        "@id": "node/5306402950",
        "name": "宜山路",
        "name:en": "Yishan Road",
        "network": "上海地铁",
        "public_transport": "station",
        "railway": "station",
        "station": "subway",
        "subway": "yes"
      },
      "geometry": {
        "type": "Point",
        "coordinates": [
          121.4227293,
          31.1862088
        ]
      },
      "id": "node/5306402950"
    },
    {
      "type": "Feature",
      "properties": {
        "@id": "node/5306402951",
        "name": "嘉善路",
        "name:en": "Jiashan Road",
        "network": "上海地铁",
        "note": "9号线 - For Line 9 - 请不要合并",
        "public_transport": "station",
        "railway": "station",
        "station": "subway",
        "subway": "yes",
        "wheelchair": "yes"
      },
      "geometry": {
        "type": "Point",
        "coordinates": [
          121.456367,
          31.2046319
        ]
      },
      "id": "node/5306402951"
    },
    {
      "type": "Feature",
      "properties": {
        "@id": "node/5306402952",
        "name": "打浦桥",
        "name:en": "Dapuqiao",
        "network": "上海地铁",
        "public_transport": "station",
        "railway": "station",
        "station": "subway",
        "subway": "yes",
        "wheelchair": "yes",
        "wikidata": "Q5936524"
      },
      "geometry": {
        "type": "Point",
        "coordinates": [
          121.4640097,
          31.2082336
        ]
      },
      "id": "node/5306402952"
    },
    {
      "type": "Feature",
      "properties": {
        "@id": "node/5306402955",
        "name": "马当路",
        "name:en": "Madang Road",
        "network": "上海地铁",
        "note": "9号线 - For Line 9 - 请不要合并",
        "public_transport": "station",
        "railway": "station",
        "station": "subway",
        "subway": "yes",
        "wheelchair": "yes"
      },
      "geometry": {
        "type": "Point",
        "coordinates": [
          121.4720292,
          31.2112829
        ]
      },
      "id": "node/5306402955"
    },
    {
      "type": "Feature",
      "properties": {
        "@id": "node/5306402956",
        "name": "小南门",
        "name:en": "Xiaonanmen",
        "network": "上海地铁",
        "public_transport": "station",
        "railway": "station",
        "station": "subway",
        "subway": "yes",
        "wheelchair": "yes",
        "wikidata": "Q986041"
      },
      "geometry": {
        "type": "Point",
        "coordinates": [
          121.4940577,
          31.2190076
        ]
      },
      "id": "node/5306402956"
    },
    {
      "type": "Feature",
      "properties": {
        "@id": "node/5306402957",
        "name": "商城路",
        "name:en": "Shangcheng Road",
        "network": "上海地铁",
        "public_transport": "station",
        "railway": "station",
        "station": "subway",
        "subway": "yes",
        "wikidata": "Q877373"
      },
      "geometry": {
        "type": "Point",
        "coordinates": [
          121.5120392,
          31.2325245
        ]
      },
      "id": "node/5306402957"
    },
    {
      "type": "Feature",
      "properties": {
        "@id": "node/5306444950",
        "name": "龙柏新村",
        "name:en": "Longbai Xincun",
        "network": "上海地铁",
        "public_transport": "station",
        "railway": "station",
        "station": "subway",
        "subway": "yes",
        "wheelchair": "limited"
      },
      "geometry": {
        "type": "Point",
        "coordinates": [
          121.3659379,
          31.1792624
        ]
      },
      "id": "node/5306444950"
    },
    {
      "type": "Feature",
      "properties": {
        "@id": "node/5306444951",
        "name": "紫藤路",
        "name:en": "Ziteng Road",
        "network": "上海地铁",
        "public_transport": "station",
        "railway": "station",
        "station": "subway",
        "subway": "yes",
        "wikidata": "Q5949916"
      },
      "geometry": {
        "type": "Point",
        "coordinates": [
          121.3609817,
          31.1717823
        ]
      },
      "id": "node/5306444951"
    },
    {
      "type": "Feature",
      "properties": {
        "@id": "node/5306444952",
        "name": "航中路",
        "name:en": "Hangzhong Road",
        "network": "上海地铁",
        "public_transport": "station",
        "railway": "station",
        "station": "subway",
        "subway": "yes",
        "wikidata": "Q985932"
      },
      "geometry": {
        "type": "Point",
        "coordinates": [
          121.3491547,
          31.1671579
        ]
      },
      "id": "node/5306444952"
    },
    {
      "type": "Feature",
      "properties": {
        "@id": "node/5306444953",
        "name": "上海动物园",
        "name:en": "Shanghai Zoo",
        "network": "上海地铁",
        "network:en": "Shanghai Metro",
        "network:wikidata": "Q462201",
        "network:zh": "上海地铁",
        "public_transport": "station",
        "railway": "station",
        "station": "subway",
        "subway": "yes",
        "wikidata": "Q5936098"
      },
      "geometry": {
        "type": "Point",
        "coordinates": [
          121.3634133,
          31.1920985
        ]
      },
      "id": "node/5306444953"
    },
    {
      "type": "Feature",
      "properties": {
        "@id": "node/5306444954",
        "name": "龙溪路",
        "name:en": "Longxi Road",
        "network": "上海地铁",
        "public_transport": "station",
        "railway": "station",
        "station": "subway",
        "subway": "yes",
        "wikidata": "Q985969"
      },
      "geometry": {
        "type": "Point",
        "coordinates": [
          121.3757005,
          31.1963362
        ]
      },
      "id": "node/5306444954"
    },
    {
      "type": "Feature",
      "properties": {
        "@id": "node/5306444955",
        "name": "水城路",
        "name:en": "Shuicheng Road",
        "network": "上海地铁",
        "public_transport": "station",
        "railway": "station",
        "station": "subway",
        "subway": "yes",
        "wikidata": "Q6119580"
      },
      "geometry": {
        "type": "Point",
        "coordinates": [
          121.3876028,
          31.2012461
        ]
      },
      "id": "node/5306444955"
    },
    {
      "type": "Feature",
      "properties": {
        "@id": "node/5306444956",
        "name": "伊犁路",
        "name:en": "Yili Road",
        "network": "上海地铁",
        "public_transport": "station",
        "railway": "station",
        "station": "subway",
        "subway": "yes",
        "wheelchair": "limited",
        "wikidata": "Q5935842"
      },
      "geometry": {
        "type": "Point",
        "coordinates": [
          121.3980259,
          31.2011073
        ]
      },
      "id": "node/5306444956"
    },
    {
      "type": "Feature",
      "properties": {
        "@id": "node/5306444957",
        "name": "宋园路",
        "name:en": "Songyuan Road",
        "network": "上海地铁",
        "public_transport": "station",
        "railway": "station",
        "station": "subway",
        "subway": "yes",
        "wikidata": "Q985965"
      },
      "geometry": {
        "type": "Point",
        "coordinates": [
          121.4079018,
          31.1983438
        ]
      },
      "id": "node/5306444957"
    },
    {
      "type": "Feature",
      "properties": {
        "@id": "node/5306444958",
        "name": "虹桥路",
        "name:en": "Hongqiao Road",
        "network": "上海地铁",
        "public_transport": "station",
        "railway": "station",
        "station": "subway",
        "subway": "yes",
        "wikidata": "Q952567",
        "wikipedia": "en:Hongqiao Road station"
      },
      "geometry": {
        "type": "Point",
        "coordinates": [
          121.4175044,
          31.198577
        ]
      },
      "id": "node/5306444958"
    },
    {
      "type": "Feature",
      "properties": {
        "@id": "node/5306444959",
        "name": "交通大学",
        "name:en": "Jiao Tong University",
        "network": "上海地铁",
        "note": "10号线 - For Line 10 - 请不要合并",
        "public_transport": "station",
        "railway": "station",
        "station": "subway",
        "subway": "yes"
      },
      "geometry": {
        "type": "Point",
        "coordinates": [
          121.4304645,
          31.2040391
        ]
      },
      "id": "node/5306444959"
    },
    {
      "type": "Feature",
      "properties": {
        "@id": "node/5306444960",
        "name": "上海图书馆",
        "name:en": "Shanghai Library",
        "network": "上海地铁",
        "public_transport": "station",
        "railway": "station",
        "station": "subway",
        "subway": "yes",
        "wikidata": "Q986024"
      },
      "geometry": {
        "type": "Point",
        "coordinates": [
          121.4396546,
          31.2100122
        ]
      },
      "id": "node/5306444960"
    },
    {
      "type": "Feature",
      "properties": {
        "@id": "node/5306444961",
        "name": "陕西南路",
        "name:en": "South Shaanxi Road",
        "network": "上海地铁",
        "public_transport": "station",
        "railway": "station",
        "station": "subway",
        "subway": "yes"
      },
      "geometry": {
        "type": "Point",
        "coordinates": [
          121.4540097,
          31.2168438
        ]
      },
      "id": "node/5306444961"
    },
    {
      "type": "Feature",
      "properties": {
        "@id": "node/5306444964",
        "alt_name": "新天地",
        "alt_name:en": "Xintiandi",
        "alt_name:zh": "新天地",
        "name": "一大会址·新天地",
        "name:en": "Site of the First CPC National Congress·Xintiandi",
        "name:ko": "신천지",
        "name:zh": "一大会址·新天地",
        "network": "上海地铁",
        "network:en": "Shanghai Metro",
        "note": "10号线 - Line 10",
        "public_transport": "station",
        "railway": "station",
        "station": "subway",
        "subway": "yes"
      },
      "geometry": {
        "type": "Point",
        "coordinates": [
          121.4699438,
          31.2180993
        ]
      },
      "id": "node/5306444964"
    },
    {
      "type": "Feature",
      "properties": {
        "@id": "node/5306444965",
        "name": "豫园",
        "name:en": "Yuyuan Garden",
        "name:ko": "예원",
        "name:zh": "豫园",
        "network": "上海地铁",
        "public_transport": "station",
        "railway": "station",
        "station": "subway",
        "subway": "yes",
        "wikidata": "Q685103"
      },
      "geometry": {
        "type": "Point",
        "coordinates": [
          121.4828695,
          31.2299254
        ]
      },
      "id": "node/5306444965"
    },
    {
      "type": "Feature",
      "properties": {
        "@id": "node/5306444966",
        "name": "天潼路",
        "name:en": "Tiantong Road",
        "network": "上海地铁",
        "note": "10号线 - For Line 10 - 请不要合并",
        "public_transport": "station",
        "railway": "station",
        "station": "subway",
        "subway": "yes"
      },
      "geometry": {
        "type": "Point",
        "coordinates": [
          121.4778075,
          31.2457501
        ]
      },
      "id": "node/5306444966"
    },
    {
      "type": "Feature",
      "properties": {
        "@id": "node/5306444967",
        "name": "四川北路",
        "name:en": "North Sichuan Road",
        "network": "上海地铁",
        "public_transport": "station",
        "railway": "station",
        "station": "subway",
        "subway": "yes",
        "wheelchair": "no"
      },
      "geometry": {
        "type": "Point",
        "coordinates": [
          121.4794725,
          31.2537236
        ]
      },
      "id": "node/5306444967"
    },
    {
      "type": "Feature",
      "properties": {
        "@id": "node/5306444968",
        "name": "邮电新村",
        "name:en": "Youdian Xincun",
        "network": "上海地铁",
        "public_transport": "station",
        "railway": "station",
        "station": "subway",
        "subway": "yes",
        "wikidata": "Q986092"
      },
      "geometry": {
        "type": "Point",
        "coordinates": [
          121.4898084,
          31.2704149
        ]
      },
      "id": "node/5306444968"
    },
    {
      "type": "Feature",
      "properties": {
        "@id": "node/5306444969",
        "name": "同济大学",
        "name:en": "Tongji University",
        "network": "上海地铁",
        "public_transport": "station",
        "railway": "station",
        "station": "subway",
        "subway": "yes"
      },
      "geometry": {
        "type": "Point",
        "coordinates": [
          121.5020648,
          31.2844191
        ]
      },
      "id": "node/5306444969"
    },
    {
      "type": "Feature",
      "properties": {
        "@id": "node/5306444970",
        "name": "国权路",
        "name:en": "Guoquan Road",
        "name:zh": "国权路",
        "network": "上海地铁",
        "public_transport": "station",
        "railway": "station",
        "station": "subway",
        "subway": "yes",
        "wikidata": "Q986047"
      },
      "geometry": {
        "type": "Point",
        "coordinates": [
          121.5055912,
          31.2912548
        ]
      },
      "id": "node/5306444970"
    },
    {
      "type": "Feature",
      "properties": {
        "@id": "node/5306444971",
        "name": "五角场",
        "name:en": "Wujiaochang",
        "network": "上海地铁",
        "public_transport": "station",
        "railway": "station",
        "station": "subway",
        "subway": "yes",
        "wheelchair": "yes",
        "wikidata": "Q985980"
      },
      "geometry": {
        "type": "Point",
        "coordinates": [
          121.5100685,
          31.2997402
        ]
      },
      "id": "node/5306444971"
    },
    {
      "type": "Feature",
      "properties": {
        "@id": "node/5306444972",
        "name": "江湾体育场",
        "name:en": "Jiangwan Stadium",
        "network": "上海地铁",
        "public_transport": "station",
        "railway": "station",
        "station": "subway",
        "subway": "yes",
        "wheelchair": "no",
        "wikidata": "Q986044"
      },
      "geometry": {
        "type": "Point",
        "coordinates": [
          121.5095897,
          31.3051041
        ]
      },
      "id": "node/5306444972"
    },
    {
      "type": "Feature",
      "properties": {
        "@id": "node/5306444973",
        "name": "三门路",
        "name:en": "Sanmen Road",
        "network": "上海地铁",
        "public_transport": "station",
        "railway": "station",
        "station": "subway",
        "subway": "yes",
        "wikidata": "Q985978"
      },
      "geometry": {
        "type": "Point",
        "coordinates": [
          121.5037653,
          31.315155
        ]
      },
      "id": "node/5306444973"
    },
    {
      "type": "Feature",
      "properties": {
        "@id": "node/5306444974",
        "name": "殷高东路",
        "name:en": "East Yingao Road",
        "network": "上海地铁",
        "public_transport": "station",
        "railway": "station",
        "station": "subway",
        "subway": "yes",
        "wikidata": "Q985926"
      },
      "geometry": {
        "type": "Point",
        "coordinates": [
          121.5024309,
          31.3238015
        ]
      },
      "id": "node/5306444974"
    },
    {
      "type": "Feature",
      "properties": {
        "@id": "node/5306444975",
        "name": "新江湾城",
        "name:en": "Xinjiangwancheng",
        "network": "上海地铁",
        "public_transport": "station",
        "railway": "station",
        "station": "subway",
        "subway": "yes",
        "wikidata": "Q986058"
      },
      "geometry": {
        "type": "Point",
        "coordinates": [
          121.5023484,
          31.3307804
        ]
      },
      "id": "node/5306444975"
    },
    {
      "type": "Feature",
      "properties": {
        "@id": "node/5306464702",
        "name": "七莘路",
        "name:en": "Qixin Road",
        "network": "上海地铁",
        "public_transport": "station",
        "railway": "station",
        "station": "subway",
        "subway": "yes",
        "wikidata": "Q10864737"
      },
      "geometry": {
        "type": "Point",
        "coordinates": [
          121.3572992,
          31.1331643
        ]
      },
      "id": "node/5306464702"
    },
    {
      "type": "Feature",
      "properties": {
        "@id": "node/5306464703",
        "name": "虹莘路",
        "name:en": "Hongxin Road",
        "network": "上海地铁",
        "public_transport": "station",
        "railway": "station",
        "station": "subway",
        "subway": "yes",
        "wikidata": "Q16928601"
      },
      "geometry": {
        "type": "Point",
        "coordinates": [
          121.3758226,
          31.1395765
        ]
      },
      "id": "node/5306464703"
    },
    {
      "type": "Feature",
      "properties": {
        "@id": "node/5306464704",
        "name": "顾戴路",
        "name:en": "Gudai Road",
        "network": "上海地铁",
        "public_transport": "station",
        "railway": "station",
        "station": "subway",
        "subway": "yes",
        "wikidata": "Q16928617"
      },
      "geometry": {
        "type": "Point",
        "coordinates": [
          121.3874729,
          31.1432364
        ]
      },
      "id": "node/5306464704"
    },
    {
      "type": "Feature",
      "properties": {
        "@id": "node/5306464705",
        "name": "东兰路",
        "name:en": "Donglan Road",
        "network": "上海地铁",
        "public_transport": "station",
        "railway": "station",
        "station": "subway",
        "subway": "yes",
        "wikidata": "Q10869476"
      },
      "geometry": {
        "type": "Point",
        "coordinates": [
          121.3871482,
          31.1577076
        ]
      },
      "id": "node/5306464705"
    },
    {
      "type": "Feature",
      "properties": {
        "@id": "node/5306464706",
        "name": "虹梅路",
        "name:en": "Hongmei Road",
        "network": "上海地铁",
        "public_transport": "station",
        "railway": "station",
        "station": "subway",
        "subway": "yes",
        "wikidata": "Q16928598"
      },
      "geometry": {
        "type": "Point",
        "coordinates": [
          121.3926923,
          31.1622429
        ]
      },
      "id": "node/5306464706"
    },
    {
      "type": "Feature",
      "properties": {
        "@id": "node/5306464707",
        "name": "虹漕路",
        "name:en": "Hongcao Road",
        "network": "上海地铁",
        "public_transport": "station",
        "railway": "station",
        "station": "subway",
        "subway": "yes",
        "wikidata": "Q16928600"
      },
      "geometry": {
        "type": "Point",
        "coordinates": [
          121.4061275,
          31.1662502
        ]
      },
      "id": "node/5306464707"
    },
    {
      "type": "Feature",
      "properties": {
        "@id": "node/5306464708",
        "name": "桂林公园",
        "name:en": "Guilin Park",
        "network": "上海地铁",
        "public_transport": "station",
        "railway": "station",
        "station": "subway",
        "subway": "yes",
        "wikidata": "Q11111541"
      },
      "geometry": {
        "type": "Point",
        "coordinates": [
          121.4149819,
          31.1689829
        ]
      },
      "id": "node/5306464708"
    },
    {
      "type": "Feature",
      "properties": {
        "@id": "node/5306464710",
        "name": "龙漕路",
        "name:en": "Longcao Road",
        "network": "上海地铁",
        "public_transport": "station",
        "railway": "station",
        "station": "subway",
        "subway": "yes"
      },
      "geometry": {
        "type": "Point",
        "coordinates": [
          121.4389457,
          31.1720693
        ]
      },
      "id": "node/5306464710"
    },
    {
      "type": "Feature",
      "properties": {
        "@id": "node/5306464711",
        "name": "龙华",
        "name:en": "Longhua",
        "network": "上海地铁",
        "public_transport": "station",
        "railway": "station",
        "station": "subway",
        "subway": "yes"
      },
      "geometry": {
        "type": "Point",
        "coordinates": [
          121.4481765,
          31.176651
        ]
      },
      "id": "node/5306464711"
    },
    {
      "type": "Feature",
      "properties": {
        "@id": "node/5306464712",
        "name": "南京西路",
        "name:en": "West Nanjing Road",
        "name:zh": "南京西路",
        "name:zh-Hans": "南京西路",
        "name:zh-Hant": "南京西路",
        "network": "上海地铁",
        "public_transport": "station",
        "railway": "station",
        "station": "subway",
        "subway": "yes",
        "wheelchair": "yes",
        "wikidata": "Q1074402",
        "wikipedia": "zh:南京西路站"
      },
      "geometry": {
        "type": "Point",
        "coordinates": [
          121.4579532,
          31.2304667
        ]
      },
      "id": "node/5306464712"
    },
    {
      "type": "Feature",
      "properties": {
        "@id": "node/5306464713",
        "name": "南京西路",
        "name:en": "West Nanjing Road",
        "network": "上海地铁",
        "public_transport": "station",
        "railway": "station",
        "station": "subway",
        "subway": "yes"
      },
      "geometry": {
        "type": "Point",
        "coordinates": [
          121.4547881,
          31.2294277
        ]
      },
      "id": "node/5306464713"
    },
    {
      "type": "Feature",
      "properties": {
        "@id": "node/5306464714",
        "name": "国际客运中心",
        "name:en": "International Cruise Terminal",
        "network": "上海地铁",
        "public_transport": "station",
        "railway": "station",
        "station": "subway",
        "subway": "yes",
        "wikidata": "Q10926246"
      },
      "geometry": {
        "type": "Point",
        "coordinates": [
          121.4939618,
          31.2521438
        ]
      },
      "id": "node/5306464714"
    },
    {
      "type": "Feature",
      "properties": {
        "@id": "node/5306464715",
        "name": "提篮桥",
        "name:en": "Tilanqiao",
        "network": "上海地铁",
        "network:en": "Shanghai Metro",
        "network:wikidata": "Q462201",
        "network:zh": "上海地铁",
        "public_transport": "station",
        "railway": "station",
        "station": "subway",
        "subway": "yes"
      },
      "geometry": {
        "type": "Point",
        "coordinates": [
          121.5023598,
          31.2555213
        ]
      },
      "id": "node/5306464715"
    },
    {
      "type": "Feature",
      "properties": {
        "@id": "node/5306464716",
        "name": "江浦公园",
        "name:en": "Jiangpu Park",
        "name:zh": "江浦公园",
        "network": "上海地铁",
        "network:en": "Shanghai Metro",
        "network:wikidata": "Q462201",
        "network:zh": "上海地铁",
        "public_transport": "station",
        "railway": "station",
        "station": "subway",
        "subway": "yes"
      },
      "geometry": {
        "type": "Point",
        "coordinates": [
          121.5193261,
          31.2665507
        ]
      },
      "id": "node/5306464716"
    },
    {
      "type": "Feature",
      "properties": {
        "@id": "node/5306464717",
        "name": "宁国路",
        "name:en": "Ningguo Road",
        "name:zh": "宁国路",
        "network": "上海地铁",
        "public_transport": "station",
        "railway": "station",
        "station": "subway",
        "subway": "yes"
      },
      "geometry": {
        "type": "Point",
        "coordinates": [
          121.5283015,
          31.2706832
        ]
      },
      "id": "node/5306464717"
    },
    {
      "type": "Feature",
      "properties": {
        "@id": "node/5306464718",
        "name": "隆昌路",
        "name:en": "Longchang Road",
        "network": "上海地铁",
        "public_transport": "station",
        "railway": "station",
        "station": "subway",
        "subway": "yes"
      },
      "geometry": {
        "type": "Point",
        "coordinates": [
          121.5407047,
          31.2776265
        ]
      },
      "id": "node/5306464718"
    },
    {
      "type": "Feature",
      "properties": {
        "@id": "node/5306464719",
        "name": "爱国路",
        "name:en": "Aiguo Road",
        "network": "上海地铁",
        "public_transport": "station",
        "railway": "station",
        "station": "subway",
        "subway": "yes"
      },
      "geometry": {
        "type": "Point",
        "coordinates": [
          121.5482806,
          31.2819802
        ]
      },
      "id": "node/5306464719"
    },
    {
      "type": "Feature",
      "properties": {
        "@id": "node/5306464720",
        "name": "复兴岛",
        "name:en": "Fuxing Island",
        "network": "上海地铁",
        "public_transport": "station",
        "railway": "station",
        "station": "subway",
        "subway": "yes"
      },
      "geometry": {
        "type": "Point",
        "coordinates": [
          121.5569642,
          31.2830231
        ]
      },
      "id": "node/5306464720"
    },
    {
      "type": "Feature",
      "properties": {
        "@id": "node/5306468321",
        "name": "东陆路",
        "name:en": "Donglu Road",
        "network": "上海地铁",
        "public_transport": "station",
        "railway": "station",
        "station": "subway",
        "subway": "yes"
      },
      "geometry": {
        "type": "Point",
        "coordinates": [
          121.5746447,
          31.2846896
        ]
      },
      "id": "node/5306468321"
    },
    {
      "type": "Feature",
      "properties": {
        "@id": "node/5306468322",
        "name": "巨峰路",
        "name:en": "Jufeng Road",
        "network": "上海地铁",
        "public_transport": "station",
        "railway": "station",
        "station": "subway",
        "subway": "yes"
      },
      "geometry": {
        "type": "Point",
        "coordinates": [
          121.5851422,
          31.2823103
        ]
      },
      "id": "node/5306468322"
    },
    {
      "type": "Feature",
      "properties": {
        "@id": "node/5306468323",
        "name": "杨高北路",
        "name:en": "North Yanggao Road",
        "network": "上海地铁",
        "public_transport": "station",
        "railway": "station",
        "station": "subway",
        "subway": "yes"
      },
      "geometry": {
        "type": "Point",
        "coordinates": [
          121.5987664,
          31.2823068
        ]
      },
      "id": "node/5306468323"
    },
    {
      "type": "Feature",
      "properties": {
        "@id": "node/5306468324",
        "name": "金京路",
        "name:en": "Jinjing Road",
        "network": "上海地铁",
        "public_transport": "station",
        "railway": "station",
        "station": "subway",
        "subway": "yes"
      },
      "geometry": {
        "type": "Point",
        "coordinates": [
          121.6107908,
          31.2818724
        ]
      },
      "id": "node/5306468324"
    },
    {
      "type": "Feature",
      "properties": {
        "@id": "node/5306468325",
        "name": "申江路",
        "name:en": "Shenjiang Road",
        "network": "上海地铁",
        "public_transport": "station",
        "railway": "station",
        "station": "subway",
        "subway": "yes",
        "wikidata": "Q15304663"
      },
      "geometry": {
        "type": "Point",
        "coordinates": [
          121.6226106,
          31.2823166
        ]
      },
      "id": "node/5306468325"
    },
    {
      "type": "Feature",
      "properties": {
        "@id": "node/5306468326",
        "name": "金海路",
        "name:en": "Jinhai Road",
        "network": "上海地铁",
        "public_transport": "station",
        "railway": "station",
        "station": "subway",
        "subway": "yes"
      },
      "geometry": {
        "type": "Point",
        "coordinates": [
          121.634452,
          31.2653459
        ]
      },
      "id": "node/5306468326"
    },
    {
      "type": "Feature",
      "properties": {
        "@id": "node/5306477805",
        "name": "金运路",
        "name:en": "Jinyun Road",
        "network": "上海地铁",
        "public_transport": "station",
        "railway": "station",
        "station": "subway",
        "subway": "yes",
        "wikidata": "Q2165593"
      },
      "geometry": {
        "type": "Point",
        "coordinates": [
          121.3154702,
          31.2428647
        ]
      },
      "id": "node/5306477805"
    },
    {
      "type": "Feature",
      "properties": {
        "@id": "node/5306477806",
        "name": "金沙江西路",
        "name:en": "West Jinshajiang Road",
        "network": "上海地铁",
        "public_transport": "station",
        "railway": "station",
        "station": "subway",
        "subway": "yes",
        "wikidata": "Q2164839"
      },
      "geometry": {
        "type": "Point",
        "coordinates": [
          121.3306649,
          31.2430562
        ]
      },
      "id": "node/5306477806"
    },
    {
      "type": "Feature",
      "properties": {
        "@id": "node/5306477807",
        "name": "丰庄",
        "name:en": "Fengzhuang",
        "network": "上海地铁",
        "public_transport": "station",
        "railway": "station",
        "station": "subway",
        "subway": "yes",
        "wikidata": "Q2165784"
      },
      "geometry": {
        "type": "Point",
        "coordinates": [
          121.3507104,
          31.2442808
        ]
      },
      "id": "node/5306477807"
    },
    {
      "type": "Feature",
      "properties": {
        "@id": "node/5306477808",
        "name": "祁连山南路",
        "name:en": "South Qilianshan Road",
        "network": "上海地铁",
        "public_transport": "station",
        "railway": "station",
        "station": "subway",
        "subway": "yes",
        "wikidata": "Q13619056"
      },
      "geometry": {
        "type": "Point",
        "coordinates": [
          121.3626932,
          31.2394924
        ]
      },
      "id": "node/5306477808"
    },
    {
      "type": "Feature",
      "properties": {
        "@id": "node/5306477809",
        "name": "真北路",
        "name:en": "Zhenbei Road",
        "network": "上海地铁",
        "public_transport": "station",
        "railway": "station",
        "station": "subway",
        "subway": "yes"
      },
      "geometry": {
        "type": "Point",
        "coordinates": [
          121.3775593,
          31.2340365
        ]
      },
      "id": "node/5306477809"
    },
    {
      "type": "Feature",
      "properties": {
        "@id": "node/5306477810",
        "name": "大渡河路",
        "name:en": "Daduhe Road",
        "network": "上海地铁",
        "public_transport": "station",
        "railway": "station",
        "station": "subway",
        "subway": "yes"
      },
      "geometry": {
        "type": "Point",
        "coordinates": [
          121.3896185,
          31.233634
        ]
      },
      "id": "node/5306477810"
    },
    {
      "type": "Feature",
      "properties": {
        "@id": "node/5306477811",
        "name": "金沙江路",
        "name:en": "Jinshajiang Road",
        "network": "上海地铁",
        "public_transport": "station",
        "railway": "station",
        "station": "subway",
        "subway": "yes"
      },
      "geometry": {
        "type": "Point",
        "coordinates": [
          121.4072205,
          31.2331191
        ]
      },
      "id": "node/5306477811"
    },
    {
      "type": "Feature",
      "properties": {
        "@id": "node/5306477812",
        "name": "隆德路",
        "name:en": "Longde Road",
        "network": "上海地铁",
        "note": "11号线 - For Line 11 - 请不要合并",
        "public_transport": "station",
        "railway": "station",
        "station": "subway",
        "subway": "yes"
      },
      "geometry": {
        "type": "Point",
        "coordinates": [
          121.4189633,
          31.2324037
        ]
      },
      "id": "node/5306477812"
    },
    {
      "type": "Feature",
      "properties": {
        "@id": "node/5306477813",
        "name": "武宁路",
        "name:en": "Wuning Road",
        "name:zh": "武宁路",
        "network": "上海地铁",
        "public_transport": "station",
        "railway": "station",
        "station": "subway",
        "subway": "yes",
        "toilets:wheelchair": "no",
        "wheelchair": "yes",
        "wikidata": "Q11124038"
      },
      "geometry": {
        "type": "Point",
        "coordinates": [
          121.4260872,
          31.2363368
        ]
      },
      "id": "node/5306477813"
    },
    {
      "type": "Feature",
      "properties": {
        "@id": "node/5306477814",
        "name": "江宁路",
        "name:en": "Jiangning Road",
        "network": "上海地铁",
        "public_transport": "station",
        "railway": "station",
        "station": "subway",
        "subway": "yes",
        "wikidata": "Q11134219"
      },
      "geometry": {
        "type": "Point",
        "coordinates": [
          121.4398643,
          31.2461078
        ]
      },
      "id": "node/5306477814"
    },
    {
      "type": "Feature",
      "properties": {
        "@id": "node/5306477815",
        "name": "自然博物馆",
        "name:en": "Shanghai Natural History Museum",
        "name:zh": "自然博物馆",
        "name:zh-Hans": "自然博物馆",
        "name:zh-Hant": "自然博物館",
        "network": "上海地铁",
        "public_transport": "station",
        "railway": "station",
        "station": "subway",
        "subway": "yes",
        "wheelchair": "yes",
        "wikidata": "Q16928591",
        "wikipedia": "zh:自然博物馆站"
      },
      "geometry": {
        "type": "Point",
        "coordinates": [
          121.457925,
          31.2377862
        ]
      },
      "id": "node/5306477815"
    },
    {
      "type": "Feature",
      "properties": {
        "@id": "node/5306477816",
        "name": "淮海中路",
        "name:en": "Middle Huaihai Road",
        "name:zh": "淮海中路",
        "name:zh-Hans": "淮海中路",
        "name:zh-Hant": "淮海中路",
        "network": "上海地铁",
        "public_transport": "station",
        "railway": "station",
        "station": "subway",
        "subway": "yes",
        "wheelchair": "yes",
        "wikidata": "Q11152722",
        "wikipedia": "zh:淮海中路站"
      },
      "geometry": {
        "type": "Point",
        "coordinates": [
          121.4598334,
          31.2218467
        ]
      },
      "id": "node/5306477816"
    },
    {
      "type": "Feature",
      "properties": {
        "@id": "node/5306477817",
        "air_conditioning": "yes",
        "name": "世博会博物馆",
        "name:en": "World Expo Museum",
        "name:zh": "世博会博物馆",
        "name:zh-Hans": "世博会博物馆",
        "name:zh-Hant": "世博會博物館",
        "network": "上海地铁",
        "public_transport": "station",
        "railway": "station",
        "station": "subway",
        "subway": "yes",
        "wheelchair": "yes",
        "wikidata": "Q5957575",
        "wikipedia": "zh:世博会博物馆站"
      },
      "geometry": {
        "type": "Point",
        "coordinates": [
          121.4770974,
          31.1992369
        ]
      },
      "id": "node/5306477817"
    },
    {
      "type": "Feature",
      "properties": {
        "@id": "node/5306536045",
        "name": "灵岩南路",
        "name:en": "South Lingyan Road",
        "network": "上海地铁",
        "public_transport": "station",
        "railway": "station",
        "station": "subway",
        "subway": "yes",
        "wikidata": "Q1038706"
      },
      "geometry": {
        "type": "Point",
        "coordinates": [
          121.4908095,
          31.1507738
        ]
      },
      "id": "node/5306536045"
    },
    {
      "type": "Feature",
      "properties": {
        "@id": "node/5306536046",
        "name": "上南路",
        "name:en": "Shangnan Road",
        "network": "上海地铁",
        "public_transport": "station",
        "railway": "station",
        "station": "subway",
        "subway": "yes",
        "wikidata": "Q985973"
      },
      "geometry": {
        "type": "Point",
        "coordinates": [
          121.5019944,
          31.1511939
        ]
      },
      "id": "node/5306536046"
    },
    {
      "type": "Feature",
      "properties": {
        "@id": "node/5306536047",
        "name": "华夏西路",
        "name:en": "West Huaxia Road",
        "network": "上海地铁",
        "public_transport": "station",
        "railway": "station",
        "station": "subway",
        "subway": "yes",
        "wikidata": "Q985945"
      },
      "geometry": {
        "type": "Point",
        "coordinates": [
          121.5103152,
          31.1519915
        ]
      },
      "id": "node/5306536047"
    },
    {
      "type": "Feature",
      "properties": {
        "@id": "node/5306536048",
        "name": "高青路",
        "name:en": "Gaoqing Road",
        "network": "上海地铁",
        "public_transport": "station",
        "railway": "station",
        "station": "subway",
        "subway": "yes",
        "wikidata": "Q986055"
      },
      "geometry": {
        "type": "Point",
        "coordinates": [
          121.5113016,
          31.1614947
        ]
      },
      "id": "node/5306536048"
    },
    {
      "type": "Feature",
      "properties": {
        "@id": "node/5306536049",
        "name": "东明路",
        "name:en": "Dongming Road",
        "network": "上海地铁",
        "note": "Line 6",
        "public_transport": "station",
        "railway": "station",
        "station": "subway",
        "subway": "yes"
      },
      "geometry": {
        "type": "Point",
        "coordinates": [
          121.5065829,
          31.1747979
        ]
      },
      "id": "node/5306536049"
    },
    {
      "type": "Feature",
      "properties": {
        "@id": "node/5306536050",
        "name": "临沂新村",
        "name:en": "Linyi Xincun",
        "network": "上海地铁",
        "public_transport": "station",
        "railway": "station",
        "station": "subway",
        "subway": "yes",
        "wikidata": "Q986101"
      },
      "geometry": {
        "type": "Point",
        "coordinates": [
          121.5131584,
          31.1958017
        ]
      },
      "id": "node/5306536050"
    },
    {
      "type": "Feature",
      "properties": {
        "@id": "node/5306536051",
        "name": "上海儿童医学中心",
        "name:en": "Shanghai Children's Medical Center",
        "network": "上海地铁",
        "public_transport": "station",
        "railway": "station",
        "station": "subway",
        "subway": "yes",
        "wikidata": "Q986032"
      },
      "geometry": {
        "type": "Point",
        "coordinates": [
          121.5195474,
          31.2061476
        ]
      },
      "id": "node/5306536051"
    },
    {
      "type": "Feature",
      "properties": {
        "@id": "node/5306536052",
        "name": "源深体育中心",
        "name:en": "Yuanshen Sports Centre",
        "network": "上海地铁",
        "public_transport": "station",
        "railway": "station",
        "station": "subway",
        "subway": "yes",
        "wikidata": "Q877365"
      },
      "geometry": {
        "type": "Point",
        "coordinates": [
          121.5298954,
          31.2350364
        ]
      },
      "id": "node/5306536052"
    },
    {
      "type": "Feature",
      "properties": {
        "@id": "node/5306536053",
        "name": "民生路",
        "name:en": "Minsheng Road",
        "name:zh": "民生路",
        "network": "上海地铁",
        "public_transport": "station",
        "railway": "station",
        "station": "subway",
        "subway": "yes",
        "wikidata": "Q876976"
      },
      "geometry": {
        "type": "Point",
        "coordinates": [
          121.5402665,
          31.2383036
        ]
      },
      "id": "node/5306536053"
    },
    {
      "type": "Feature",
      "properties": {
        "@id": "node/5306536054",
        "name": "北洋泾路",
        "name:en": "Beiyangjing Road",
        "network": "上海地铁",
        "public_transport": "station",
        "railway": "station",
        "station": "subway",
        "subway": "yes"
      },
      "geometry": {
        "type": "Point",
        "coordinates": [
          121.5477984,
          31.2411683
        ]
      },
      "id": "node/5306536054"
    },
    {
      "type": "Feature",
      "properties": {
        "@id": "node/5306536055",
        "name": "德平路",
        "name:en": "Deping Road",
        "network": "上海地铁",
        "public_transport": "station",
        "railway": "station",
        "station": "subway",
        "subway": "yes",
        "wheelchair": "yes",
        "wikidata": "Q985962"
      },
      "geometry": {
        "type": "Point",
        "coordinates": [
          121.5600894,
          31.2476236
        ]
      },
      "id": "node/5306536055"
    },
    {
      "type": "Feature",
      "properties": {
        "@id": "node/5306536056",
        "name": "云山路",
        "name:en": "Yunshan Road",
        "name:zh": "云山路",
        "network": "上海地铁",
        "public_transport": "station",
        "railway": "station",
        "station": "subway",
        "subway": "yes",
        "wheelchair": "yes",
        "wikidata": "Q985976"
      },
      "geometry": {
        "type": "Point",
        "coordinates": [
          121.5677749,
          31.252114
        ]
      },
      "id": "node/5306536056"
    },
    {
      "type": "Feature",
      "properties": {
        "@id": "node/5306536057",
        "name": "金桥路",
        "name:en": "Jinqiao Road",
        "network": "上海地铁",
        "public_transport": "station",
        "railway": "station",
        "station": "subway",
        "subway": "yes",
        "wikidata": "Q877314"
      },
      "geometry": {
        "type": "Point",
        "coordinates": [
          121.5775913,
          31.2593229
        ]
      },
      "id": "node/5306536057"
    },
    {
      "type": "Feature",
      "properties": {
        "@id": "node/5306536058",
        "name": "博兴路",
        "name:en": "Boxing Road",
        "network": "上海地铁",
        "public_transport": "station",
        "railway": "station",
        "station": "subway",
        "subway": "yes",
        "wheelchair": "yes",
        "wikidata": "Q986053"
      },
      "geometry": {
        "type": "Point",
        "coordinates": [
          121.5826511,
          31.2661406
        ]
      },
      "id": "node/5306536058"
    },
    {
      "type": "Feature",
      "properties": {
        "@id": "node/5306595215",
        "name": "御桥",
        "name:en": "Yuqiao",
        "network": "上海地铁",
        "public_transport": "station",
        "railway": "station",
        "station": "subway",
        "subway": "yes"
      },
      "geometry": {
        "type": "Point",
        "coordinates": [
          121.5674635,
          31.1607277
        ]
      },
      "id": "node/5306595215"
    },
    {
      "type": "Feature",
      "properties": {
        "@id": "node/5306595216",
        "name": "曹杨路",
        "name:en": "Caoyang Road",
        "name:zh": "曹杨路",
        "name:zh-Hans": "曹杨路",
        "name:zh-Hant": "曹楊路",
        "network": "上海地铁",
        "public_transport": "station",
        "railway": "station",
        "station": "subway",
        "subway": "yes",
        "wheelchair": "yes",
        "wikidata": "Q2092882",
        "wikipedia": "zh:曹杨路站"
      },
      "geometry": {
        "type": "Point",
        "coordinates": [
          121.4122228,
          31.2403031
        ]
      },
      "id": "node/5306595216"
    },
    {
      "type": "Feature",
      "properties": {
        "@id": "node/5308116324",
        "name": "汇金路",
        "name:en": "Huijin Road",
        "name:zh": "汇金路",
        "public_transport": "station",
        "railway": "station",
        "station": "subway",
        "subway": "yes",
        "wheelchair": "limited",
        "wikidata": "Q47006294"
      },
      "geometry": {
        "type": "Point",
        "coordinates": [
          121.1474612,
          31.1631754
        ]
      },
      "id": "node/5308116324"
    },
    {
      "type": "Feature",
      "properties": {
        "@id": "node/5308116325",
        "name": "赵巷",
        "name:en": "Zhaoxiang",
        "public_transport": "station",
        "railway": "station",
        "station": "subway",
        "subway": "yes",
        "wikidata": "Q47005386"
      },
      "geometry": {
        "type": "Point",
        "coordinates": [
          121.1877018,
          31.1630876
        ]
      },
      "id": "node/5308116325"
    },
    {
      "type": "Feature",
      "properties": {
        "@id": "node/5308116326",
        "name": "嘉松中路",
        "name:en": "Middle Jiasong Road",
        "public_transport": "station",
        "railway": "station",
        "station": "subway",
        "subway": "yes",
        "wikidata": "Q47005376"
      },
      "geometry": {
        "type": "Point",
        "coordinates": [
          121.2196941,
          31.1660537
        ]
      },
      "id": "node/5308116326"
    },
    {
      "type": "Feature",
      "properties": {
        "@id": "node/5308116327",
        "name": "徐泾北城",
        "name:en": "Xujingbeicheng",
        "public_transport": "station",
        "railway": "station",
        "station": "subway",
        "subway": "yes",
        "wikidata": "Q47007421"
      },
      "geometry": {
        "type": "Point",
        "coordinates": [
          121.236333,
          31.1773406
        ]
      },
      "id": "node/5308116327"
    },
    {
      "type": "Feature",
      "properties": {
        "@id": "node/5308116328",
        "name": "徐盈路",
        "name:en": "Xuying Road",
        "public_transport": "station",
        "railway": "station",
        "station": "subway",
        "subway": "yes",
        "wikidata": "Q47005515"
      },
      "geometry": {
        "type": "Point",
        "coordinates": [
          121.2498298,
          31.180115
        ]
      },
      "id": "node/5308116328"
    },
    {
      "type": "Feature",
      "properties": {
        "@id": "node/5308116329",
        "name": "蟠龙路",
        "name:en": "Panlong Road",
        "public_transport": "station",
        "railway": "station",
        "station": "subway",
        "subway": "yes",
        "wikidata": "Q47005512"
      },
      "geometry": {
        "type": "Point",
        "coordinates": [
          121.2742138,
          31.1884239
        ]
      },
      "id": "node/5308116329"
    },
    {
      "type": "Feature",
      "properties": {
        "@id": "node/5308116330",
        "name": "国家会展中心",
        "name:en": "National Exhibiation and Convention Center",
        "name:zh": "国家会展中心",
        "public_transport": "station",
        "railway": "station",
        "station": "subway",
        "subway": "yes",
        "wikidata": "Q47006283"
      },
      "geometry": {
        "type": "Point",
        "coordinates": [
          121.288109,
          31.1934775
        ]
      },
      "id": "node/5308116330"
    },
    {
      "type": "Feature",
      "properties": {
        "@id": "node/5308162422",
        "addr:district": "浦东新区",
        "addr:province": "上海",
        "internet_access": "no",
        "name": "曹路",
        "name:en": "Caolu",
        "network": "上海地铁",
        "operator": "申通地铁集团",
        "public_transport": "station",
        "railway": "station",
        "station": "subway",
        "subway": "yes",
        "wikidata": "Q47005146"
      },
      "geometry": {
        "type": "Point",
        "coordinates": [
          121.6784911,
          31.273409
        ]
      },
      "id": "node/5308162422"
    },
    {
      "type": "Feature",
      "properties": {
        "@id": "node/5308162423",
        "addr:district": "浦东新区",
        "addr:province": "上海",
        "internet_access": "no",
        "name": "民雷路",
        "name:en": "Minlei Road",
        "operator": "上海轨道交通9号线",
        "public_transport": "station",
        "railway": "station",
        "station": "subway",
        "subway": "yes",
        "wikidata": "Q47005145"
      },
      "geometry": {
        "type": "Point",
        "coordinates": [
          121.663802,
          31.2704573
        ]
      },
      "id": "node/5308162423"
    },
    {
      "type": "Feature",
      "properties": {
        "@id": "node/5308162425",
        "addr:district": "浦东新区",
        "addr:province": "上海",
        "name": "金吉路",
        "name:en": "Jinji Road",
        "network": "上海地铁",
        "operator": "申通地铁集团",
        "public_transport": "station",
        "railway": "station",
        "station": "subway",
        "subway": "yes",
        "wikidata": "Q11120404"
      },
      "geometry": {
        "type": "Point",
        "coordinates": [
          121.6247128,
          31.2666619
        ]
      },
      "id": "node/5308162425"
    },
    {
      "type": "Feature",
      "properties": {
        "@id": "node/5308162426",
        "internet_access": "no",
        "name": "金桥",
        "name:en": "Jinqiao",
        "network": "上海地铁",
        "operator": "申通地铁集团",
        "public_transport": "station",
        "railway": "station",
        "station": "subway",
        "subway": "yes",
        "wikidata": "Q28415470"
      },
      "geometry": {
        "type": "Point",
        "coordinates": [
          121.6072181,
          31.2631226
        ]
      },
      "id": "node/5308162426"
    },
    {
      "type": "Feature",
      "properties": {
        "@id": "node/5308162427",
        "name": "台儿庄路",
        "name:en": "Taierzhuang Road",
        "name:zh": "台儿庄路",
        "network": "上海地铁",
        "operator": "申通地铁集团",
        "public_transport": "station",
        "railway": "station",
        "station": "subway",
        "subway": "yes",
        "wikidata": "Q45809204",
        "wikipedia": "zh:台儿庄路站"
      },
      "geometry": {
        "type": "Point",
        "coordinates": [
          121.5931398,
          31.2544453
        ]
      },
      "id": "node/5308162427"
    },
    {
      "type": "Feature",
      "properties": {
        "@id": "node/5308162428",
        "name": "蓝天路",
        "name:en": "Lantian Road",
        "name:zh": "蓝天路",
        "network": "上海地铁",
        "operator": "申通地铁集团",
        "public_transport": "station",
        "railway": "station",
        "station": "subway",
        "subway": "yes",
        "wheelchair": "yes",
        "wikidata": "Q46993434"
      },
      "geometry": {
        "type": "Point",
        "coordinates": [
          121.5736362,
          31.243219
        ]
      },
      "id": "node/5308162428"
    },
    {
      "type": "Feature",
      "properties": {
        "@id": "node/5308162429",
        "name": "芳甸路",
        "name:en": "Fangdian Road",
        "network": "上海地铁",
        "operator": "申通地铁集团",
        "public_transport": "station",
        "railway": "station",
        "station": "subway",
        "subway": "yes",
        "wikidata": "Q30487970"
      },
      "geometry": {
        "type": "Point",
        "coordinates": [
          121.5544198,
          31.2343994
        ]
      },
      "id": "node/5308162429"
    },
    {
      "type": "Feature",
      "properties": {
        "@id": "node/5308432220",
        "name": "陕西南路",
        "name:en": "South Shaanxi Road",
        "network": "上海地铁",
        "public_transport": "station",
        "railway": "station",
        "station": "subway",
        "subway": "yes",
        "wheelchair": "limited"
      },
      "geometry": {
        "type": "Point",
        "coordinates": [
          121.4546929,
          31.2177863
        ]
      },
      "id": "node/5308432220"
    },
    {
      "type": "Feature",
      "properties": {
        "@id": "node/5312024931",
        "name": "漕宝路",
        "name:en": "Caobao Road",
        "network": "上海地铁",
        "public_transport": "station",
        "railway": "station",
        "station": "subway",
        "subway": "yes"
      },
      "geometry": {
        "type": "Point",
        "coordinates": [
          121.4291103,
          31.1704329
        ]
      },
      "id": "node/5312024931"
    },
    {
      "type": "Feature",
      "properties": {
        "@id": "node/5312291904",
        "addr:district": "浦东新区",
        "addr:province": "上海",
        "internet_access": "no",
        "name": "顾唐路",
        "name:en": "Gutang Road",
        "network": "上海地铁",
        "operator": "申通地铁集团",
        "public_transport": "station",
        "railway": "station",
        "station": "subway",
        "subway": "yes",
        "wikidata": "Q47004880"
      },
      "geometry": {
        "type": "Point",
        "coordinates": [
          121.6522724,
          31.2682621
        ]
      },
      "id": "node/5312291904"
    },
    {
      "type": "Feature",
      "properties": {
        "@id": "node/5313309145",
        "name": "虹桥火车站",
        "name:en": "Hongqiao Railway Station",
        "name:zh": "虹桥火车站",
        "name:zh-Hans": "虹桥火车站",
        "name:zh-Hant": "虹橋火車站",
        "network": "上海地铁",
        "note": "17号线 - For Line 17 - 请不要合并",
        "public_transport": "station",
        "railway": "station",
        "station": "subway",
        "subway": "yes"
      },
      "geometry": {
        "type": "Point",
        "coordinates": [
          121.3137243,
          31.1961627
        ]
      },
      "id": "node/5313309145"
    },
    {
      "type": "Feature",
      "properties": {
        "@id": "node/5313309146",
        "name": "虹桥火车站",
        "name:en": "Hongqiao Railway Station",
        "name:zh": "虹桥火车站",
        "name:zh-Hans": "虹桥火车站",
        "name:zh-Hant": "虹橋火車站",
        "network": "上海地铁",
        "note": "10号线 - For Line 10 - 请不要合并",
        "public_transport": "station",
        "railway": "station",
        "station": "subway",
        "subway": "yes"
      },
      "geometry": {
        "type": "Point",
        "coordinates": [
          121.3137444,
          31.1957535
        ]
      },
      "id": "node/5313309146"
    },
    {
      "type": "Feature",
      "properties": {
        "@id": "node/5313309153",
        "name": "虹桥2号航站楼",
        "name:en": "Hongqiao Airport Terminal 2",
        "name:zh": "虹桥2号航站楼",
        "name:zh-Hans": "虹桥2号航站楼",
        "name:zh-Hant": "虹橋2號航站樓",
        "network": "上海地铁",
        "note": "10号线 - Line 10",
        "public_transport": "station",
        "railway": "station",
        "station": "subway",
        "subway": "yes"
      },
      "geometry": {
        "type": "Point",
        "coordinates": [
          121.321629,
          31.196001
        ]
      },
      "id": "node/5313309153"
    },
    {
      "type": "Feature",
      "properties": {
        "@id": "node/5313309157",
        "name": "莘庄",
        "name:en": "Xinzhuang",
        "name:zh": "莘庄",
        "network": "上海地铁",
        "note": "1号线 - For Line 1 - 请不要合并",
        "public_transport": "station",
        "railway": "station",
        "station": "subway",
        "subway": "yes"
      },
      "geometry": {
        "type": "Point",
        "coordinates": [
          121.3808599,
          31.1130124
        ]
      },
      "id": "node/5313309157"
    },
    {
      "type": "Feature",
      "properties": {
        "@id": "node/5313309158",
        "name": "莘庄",
        "name:en": "Xinzhuang",
        "name:zh": "莘庄",
        "network": "上海地铁",
        "note": "5号线 - For Line 5 - 请不要合并",
        "public_transport": "station",
        "railway": "station",
        "station": "subway",
        "subway": "yes"
      },
      "geometry": {
        "type": "Point",
        "coordinates": [
          121.3806318,
          31.1131515
        ]
      },
      "id": "node/5313309158"
    },
    {
      "type": "Feature",
      "properties": {
        "@id": "node/5313309164",
        "name": "东方体育中心",
        "name:en": "Oriental Sports Center",
        "name:zh": "东方体育中心",
        "network": "上海地铁",
        "note": "11号线 - For Line 11 - 请不要合并",
        "public_transport": "station",
        "railway": "station",
        "station": "subway",
        "subway": "yes"
      },
      "geometry": {
        "type": "Point",
        "coordinates": [
          121.4760043,
          31.1553732
        ]
      },
      "id": "node/5313309164"
    },
    {
      "type": "Feature",
      "properties": {
        "@id": "node/5313309165",
        "name": "东方体育中心",
        "name:en": "Oriental Sports Center",
        "name:zh": "东方体育中心",
        "network": "上海地铁",
        "note": "6号线 - For Line 6 - 请不要合并",
        "public_transport": "station",
        "railway": "station",
        "station": "subway",
        "subway": "yes"
      },
      "geometry": {
        "type": "Point",
        "coordinates": [
          121.4760334,
          31.155447
        ]
      },
      "id": "node/5313309165"
    },
    {
      "type": "Feature",
      "properties": {
        "@id": "node/5313859994",
        "name": "金海路",
        "name:en": "Jinhai Road",
        "network": "上海地铁",
        "public_transport": "station",
        "railway": "station",
        "station": "subway",
        "subway": "yes"
      },
      "geometry": {
        "type": "Point",
        "coordinates": [
          121.6351423,
          31.2661403
        ]
      },
      "id": "node/5313859994"
    },
    {
      "type": "Feature",
      "properties": {
        "@id": "node/5313859995",
        "name": "四平路",
        "name:en": "Siping Road",
        "network": "上海地铁",
        "note": "8号线 - For Line 8 - 请不要合并",
        "public_transport": "station",
        "railway": "station",
        "station": "subway",
        "subway": "yes"
      },
      "geometry": {
        "type": "Point",
        "coordinates": [
          121.4970717,
          31.2767984
        ]
      },
      "id": "node/5313859995"
    },
    {
      "type": "Feature",
      "properties": {
        "@id": "node/5313859997",
        "name": "曲阜路",
        "name:en": "Qufu Road",
        "network": "上海地铁",
        "note": "12号线 - For Line 12 - 请不要合并",
        "public_transport": "station",
        "railway": "station",
        "station": "subway",
        "subway": "yes"
      },
      "geometry": {
        "type": "Point",
        "coordinates": [
          121.4672532,
          31.2444162
        ]
      },
      "id": "node/5313859997"
    },
    {
      "type": "Feature",
      "properties": {
        "@id": "node/5314250339",
        "description": "10号线 - For Line 10 - 请不要合并",
        "name": "南京东路",
        "name:en": "East Nanjing Road",
        "network": "上海地铁",
        "public_transport": "station",
        "railway": "station",
        "station": "subway",
        "subway": "yes"
      },
      "geometry": {
        "type": "Point",
        "coordinates": [
          121.4801505,
          31.2402537
        ]
      },
      "id": "node/5314250339"
    },
    {
      "type": "Feature",
      "properties": {
        "@id": "node/5314250343",
        "name": "老西门",
        "name:en": "Laoximen",
        "network": "上海地铁",
        "note": "10号线 - For Line 10 - 请不要合并",
        "public_transport": "station",
        "railway": "station",
        "station": "subway",
        "subway": "yes",
        "wheelchair": "yes"
      },
      "geometry": {
        "type": "Point",
        "coordinates": [
          121.479018,
          31.2209254
        ]
      },
      "id": "node/5314250343"
    },
    {
      "type": "Feature",
      "properties": {
        "@id": "node/5314254694",
        "name": "陆家浜路",
        "name:en": "Lujiabang Road",
        "network": "上海地铁",
        "note": "9号线 - For Line 9 - 请不要合并",
        "public_transport": "station",
        "railway": "station",
        "station": "subway",
        "subway": "yes",
        "wheelchair": "no"
      },
      "geometry": {
        "type": "Point",
        "coordinates": [
          121.4811496,
          31.213813
        ]
      },
      "id": "node/5314254694"
    },
    {
      "type": "Feature",
      "properties": {
        "@id": "node/5314254695",
        "name": "马当路",
        "name:en": "Madang Road",
        "network": "上海地铁",
        "note": "13号线 - For Line 13 - 请不要合并",
        "public_transport": "station",
        "railway": "station",
        "station": "subway",
        "subway": "yes"
      },
      "geometry": {
        "type": "Point",
        "coordinates": [
          121.4717526,
          31.2116709
        ]
      },
      "id": "node/5314254695"
    },
    {
      "type": "Feature",
      "properties": {
        "@id": "node/5314264654",
        "alt_name": "新天地",
        "alt_name:en": "Xintiandi",
        "alt_name:zh": "新天地",
        "name": "一大会址·新天地",
        "name:en": "Site of the First CPC National Congress·Xintiandi",
        "name:ko": "신천지",
        "name:zh": "一大会址·新天地",
        "network": "上海地铁",
        "network:en": "Shanghai Metro",
        "note": "13号线 - Line 13",
        "public_transport": "station",
        "railway": "station",
        "station": "subway",
        "subway": "yes"
      },
      "geometry": {
        "type": "Point",
        "coordinates": [
          121.469819,
          31.2179361
        ]
      },
      "id": "node/5314264654"
    },
    {
      "type": "Feature",
      "properties": {
        "@id": "node/5314264656",
        "name": "嘉善路",
        "name:en": "Jiashan Road",
        "network": "上海地铁",
        "note": "12号线 - For Line 12 - 请不要合并",
        "public_transport": "station",
        "railway": "station",
        "station": "subway",
        "subway": "yes"
      },
      "geometry": {
        "type": "Point",
        "coordinates": [
          121.456395,
          31.2042741
        ]
      },
      "id": "node/5314264656"
    },
    {
      "type": "Feature",
      "properties": {
        "@id": "node/5314272522",
        "name": "隆德路",
        "name:en": "Longde Road",
        "network": "上海地铁",
        "note": "13号线 - For Line 13 - 请不要合并",
        "public_transport": "station",
        "railway": "station",
        "station": "subway",
        "subway": "yes"
      },
      "geometry": {
        "type": "Point",
        "coordinates": [
          121.418897,
          31.2322816
        ]
      },
      "id": "node/5314272522"
    },
    {
      "type": "Feature",
      "properties": {
        "@id": "node/5314272524",
        "name": "江苏路",
        "name:en": "Jiangsu Road",
        "network": "上海地铁",
        "note": "11号线 - For Line 11 - 请不要合并",
        "public_transport": "station",
        "railway": "station",
        "station": "subway",
        "subway": "yes"
      },
      "geometry": {
        "type": "Point",
        "coordinates": [
          121.4262469,
          31.2215398
        ]
      },
      "id": "node/5314272524"
    },
    {
      "type": "Feature",
      "properties": {
        "@id": "node/5314272527",
        "name": "交通大学",
        "name:en": "Jiao Tong University",
        "network": "上海地铁",
        "note": "11号线 - For Line 11 - 请不要合并",
        "public_transport": "station",
        "railway": "station",
        "station": "subway",
        "subway": "yes"
      },
      "geometry": {
        "type": "Point",
        "coordinates": [
          121.4306485,
          31.2041503
        ]
      },
      "id": "node/5314272527"
    },
    {
      "type": "Feature",
      "properties": {
        "@id": "node/5314277877",
        "name": "徐家汇",
        "name:en": "Xujiahui",
        "network": "上海地铁",
        "public_transport": "station",
        "railway": "station",
        "station": "subway",
        "subway": "yes"
      },
      "geometry": {
        "type": "Point",
        "coordinates": [
          121.4313608,
          31.1963162
        ]
      },
      "id": "node/5314277877"
    },
    {
      "type": "Feature",
      "properties": {
        "@id": "node/5314277881",
        "name": "世纪大道",
        "name:en": "Century Avenue",
        "name:zh": "世纪大道",
        "network": "上海地铁",
        "note": "2号线 - For Line 2 - 请不要合并",
        "public_transport": "station",
        "railway": "station",
        "station": "subway",
        "subway": "yes",
        "wheelchair": "yes"
      },
      "geometry": {
        "type": "Point",
        "coordinates": [
          121.5229001,
          31.2306936
        ]
      },
      "id": "node/5314277881"
    },
    {
      "type": "Feature",
      "properties": {
        "@id": "node/5314277882",
        "name": "世纪大道",
        "name:en": "Century Avenue",
        "name:zh": "世纪大道",
        "network": "上海地铁",
        "note": "6号线 - For Line 6 - 请不要合并",
        "public_transport": "station",
        "railway": "station",
        "station": "subway",
        "subway": "yes",
        "wheelchair": "yes",
        "wikidata": "Q1073409"
      },
      "geometry": {
        "type": "Point",
        "coordinates": [
          121.5227053,
          31.2308055
        ]
      },
      "id": "node/5314277882"
    },
    {
      "type": "Feature",
      "properties": {
        "@id": "node/5314277883",
        "name": "世纪大道",
        "name:en": "Century Avenue",
        "name:zh": "世纪大道",
        "network": "上海地铁",
        "note": "4号线 - For Line 4 - 请不要合并",
        "public_transport": "station",
        "railway": "station",
        "station": "subway",
        "subway": "yes",
        "wheelchair": "yes"
      },
      "geometry": {
        "type": "Point",
        "coordinates": [
          121.5227522,
          31.2310106
        ]
      },
      "id": "node/5314277883"
    },
    {
      "type": "Feature",
      "properties": {
        "@id": "node/5314277884",
        "name": "世纪大道",
        "name:en": "Century Avenue",
        "name:zh": "世纪大道",
        "network": "上海地铁",
        "note": "9号线 - For Line 9 - 请不要合并",
        "public_transport": "station",
        "railway": "station",
        "station": "subway",
        "subway": "yes",
        "wheelchair": "yes"
      },
      "geometry": {
        "type": "Point",
        "coordinates": [
          121.5225108,
          31.2306941
        ]
      },
      "id": "node/5314277884"
    },
    {
      "type": "Feature",
      "properties": {
        "@id": "node/7550669926",
        "name": "西渡",
        "public_transport": "station",
        "railway": "station",
        "station": "subway",
        "subway": "yes"
      },
      "geometry": {
        "type": "Point",
        "coordinates": [
          121.4274618,
          30.9914152
        ]
      },
      "id": "node/7550669926"
    },
    {
      "type": "Feature",
      "properties": {
        "@id": "node/8163814265",
        "name": "上海松江站",
        "name:en": "Shanghai Songjiang Railway Station",
        "name:zh": "上海松江站",
        "network": "上海地铁",
        "network:en": "Shanghai Metro",
        "network:wikidata": "Q462201",
        "network:zh": "上海地铁",
        "public_transport": "station",
        "railway": "station",
        "station": "subway",
        "subway": "yes"
      },
      "geometry": {
        "type": "Point",
        "coordinates": [
          121.2263732,
          30.9869127
        ]
      },
      "id": "node/8163814265"
    },
    {
      "type": "Feature",
      "properties": {
        "@id": "node/8663954070",
        "name": "古浪路",
        "name:en": "Gulang Road",
        "name:zh": "古浪路",
        "network": "上海地铁",
        "network:en": "Shanghai Metro",
        "public_transport": "station",
        "railway": "station",
        "station": "subway",
        "subway": "yes",
        "wikidata": "Q104881594"
      },
      "geometry": {
        "type": "Point",
        "coordinates": [
          121.387452,
          31.2844541
        ]
      },
      "id": "node/8663954070"
    },
    {
      "type": "Feature",
      "properties": {
        "@id": "node/8663954072",
        "name": "锦秋路",
        "name:en": "Jinqiu Road",
        "name:zh": "锦秋路",
        "name:zh-Hant": "錦秋路",
        "network": "上海地铁",
        "network:en": "Shanghai Metro",
        "public_transport": "station",
        "railway": "station",
        "station": "subway",
        "subway": "yes",
        "wikidata": "Q15895217"
      },
      "geometry": {
        "type": "Point",
        "coordinates": [
          121.377316,
          31.3221876
        ]
      },
      "id": "node/8663954072"
    },
    {
      "type": "Feature",
      "properties": {
        "@id": "node/8663954075",
        "name": "丰翔路",
        "name:en": "Fengxiang Road",
        "name:zh": "丰翔路",
        "network": "上海地铁",
        "network:en": "Shanghai Metro",
        "public_transport": "station",
        "railway": "station",
        "station": "subway",
        "subway": "yes"
      },
      "geometry": {
        "type": "Point",
        "coordinates": [
          121.3763776,
          31.3103095
        ]
      },
      "id": "node/8663954075"
    },
    {
      "type": "Feature",
      "properties": {
        "@id": "node/8663954077",
        "name": "南大路",
        "name:en": "Nanda Road",
        "name:zh": "南大路",
        "network": "上海地铁",
        "network:en": "Shanghai Metro",
        "public_transport": "station",
        "railway": "station",
        "station": "subway",
        "subway": "yes"
      },
      "geometry": {
        "type": "Point",
        "coordinates": [
          121.3755576,
          31.3004988
        ]
      },
      "id": "node/8663954077"
    },
    {
      "type": "Feature",
      "properties": {
        "@id": "node/8663954080",
        "name": "顾村公园",
        "name:en": "Gucun Park",
        "name:zh": "顾村公园",
        "network": "上海地铁",
        "network:en": "Shanghai Metro",
        "public_transport": "station",
        "railway": "station",
        "station": "subway",
        "subway": "yes"
      },
      "geometry": {
        "type": "Point",
        "coordinates": [
          121.3698399,
          31.3451773
        ]
      },
      "id": "node/8663954080"
    },
    {
      "type": "Feature",
      "properties": {
        "@id": "node/8663954081",
        "name": "祁安路",
        "name:en": "Qi'an Road",
        "name:zh": "祁安路",
        "network": "上海地铁",
        "network:en": "Shanghai Metro",
        "public_transport": "station",
        "railway": "station",
        "station": "subway",
        "subway": "yes"
      },
      "geometry": {
        "type": "Point",
        "coordinates": [
          121.3802641,
          31.2934242
        ]
      },
      "id": "node/8663954081"
    },
    {
      "type": "Feature",
      "properties": {
        "@id": "node/9008134439",
        "name": "龙阳路",
        "name:en": "Longyang Road",
        "name:ko": "롱양루",
        "name:zh": "龙阳路",
        "network": "上海地铁",
        "public_transport": "station",
        "railway": "station",
        "station": "subway",
        "subway": "yes",
        "wikidata": "Q1073601",
        "wikipedia": "zh:龙阳路站"
      },
      "geometry": {
        "type": "Point",
        "coordinates": [
          121.5534538,
          31.2052208
        ]
      },
      "id": "node/9008134439"
    },
    {
      "type": "Feature",
      "properties": {
        "@id": "node/9312201959",
        "name": "娄山关路",
        "name:en": "Loushanguan Road",
        "name:zh": "娄山关路",
        "public_transport": "station",
        "railway": "station",
        "station": "subway",
        "subway": "yes",
        "wikidata": "Q1038676"
      },
      "geometry": {
        "type": "Point",
        "coordinates": [
          121.3967585,
          31.2133704
        ]
      },
      "id": "node/9312201959"
    },
    {
      "type": "Feature",
      "properties": {
        "@id": "node/9381124225",
        "name": "昌邑路",
        "name:en": "Changyi Road",
        "name:zh": "昌邑路",
        "network": "上海地铁",
        "public_transport": "station",
        "railway": "station",
        "station": "subway",
        "subway": "yes"
      },
      "geometry": {
        "type": "Point",
        "coordinates": [
          121.5357325,
          31.2460058
        ]
      },
      "id": "node/9381124225"
    },
    {
      "type": "Feature",
      "properties": {
        "@id": "node/9381124226",
        "name": "昌邑路",
        "name:en": "Changyi Road",
        "name:zh": "昌邑路",
        "network": "上海地铁",
        "public_transport": "station",
        "railway": "station",
        "station": "subway",
        "subway": "yes"
      },
      "geometry": {
        "type": "Point",
        "coordinates": [
          121.5358083,
          31.2460556
        ]
      },
      "id": "node/9381124226"
    },
    {
      "type": "Feature",
      "properties": {
        "@id": "node/9381124227",
        "name": "北中路",
        "name:en": "Beizhong Road",
        "name:zh": "北中路",
        "network": "上海地铁",
        "public_transport": "station",
        "railway": "station",
        "station": "subway",
        "subway": "yes"
      },
      "geometry": {
        "type": "Point",
        "coordinates": [
          121.5571091,
          31.1852344
        ]
      },
      "id": "node/9381124227"
    },
    {
      "type": "Feature",
      "properties": {
        "@id": "node/9381124228",
        "name": "芳芯路",
        "name:en": "Fangxin Road",
        "name:zh": "芳芯路",
        "network": "上海地铁",
        "public_transport": "station",
        "railway": "station",
        "station": "subway",
        "subway": "yes"
      },
      "geometry": {
        "type": "Point",
        "coordinates": [
          121.5550397,
          31.193162
        ]
      },
      "id": "node/9381124228"
    },
    {
      "type": "Feature",
      "properties": {
        "@id": "node/9381124229",
        "name": "迎春路",
        "name:en": "Yingchun Road",
        "name:zh": "迎春路",
        "network": "上海地铁",
        "public_transport": "station",
        "railway": "station",
        "station": "subway",
        "subway": "yes"
      },
      "geometry": {
        "type": "Point",
        "coordinates": [
          121.5467582,
          31.2232213
        ]
      },
      "id": "node/9381124229"
    },
    {
      "type": "Feature",
      "properties": {
        "@id": "node/9381124230",
        "name": "民生路",
        "name:en": "Minsheng Road",
        "name:zh": "民生路",
        "network": "上海地铁",
        "public_transport": "station",
        "railway": "station",
        "station": "subway",
        "subway": "yes",
        "wikidata": "Q876976"
      },
      "geometry": {
        "type": "Point",
        "coordinates": [
          121.5405786,
          31.2370638
        ]
      },
      "id": "node/9381124230"
    },
    {
      "type": "Feature",
      "properties": {
        "@id": "node/9381127893",
        "name": "丹阳路",
        "name:en": "Danyang Road",
        "name:zh": "丹阳路",
        "network": "上海地铁",
        "network:en": "Shanghai Metro",
        "network:wikidata": "Q462201",
        "network:zh": "上海地铁",
        "public_transport": "station",
        "railway": "station",
        "station": "subway",
        "subway": "yes"
      },
      "geometry": {
        "type": "Point",
        "coordinates": [
          121.5260504,
          31.2569051
        ]
      },
      "id": "node/9381127893"
    },
    {
      "type": "Feature",
      "properties": {
        "@id": "node/9381158917",
        "name": "平凉路",
        "name:en": "Pingliang Road",
        "name:zh": "平凉路",
        "network": "上海地铁",
        "network:en": "Shanghai Metro",
        "network:wikidata": "Q462201",
        "network:zh": "上海地铁",
        "public_transport": "station",
        "railway": "station",
        "station": "subway",
        "subway": "yes"
      },
      "geometry": {
        "type": "Point",
        "coordinates": [
          121.52253,
          31.2610517
        ]
      },
      "id": "node/9381158917"
    },
    {
      "type": "Feature",
      "properties": {
        "@id": "node/9381170073",
        "name": "江浦公园",
        "name:en": "Jiangpu Park",
        "name:zh": "江浦公园",
        "network": "上海地铁",
        "network:en": "Shanghai Metro",
        "network:wikidata": "Q462201",
        "network:zh": "上海地铁",
        "public_transport": "station",
        "railway": "station",
        "station": "subway",
        "subway": "yes"
      },
      "geometry": {
        "type": "Point",
        "coordinates": [
          121.5191022,
          31.2672443
        ]
      },
      "id": "node/9381170073"
    },
    {
      "type": "Feature",
      "properties": {
        "@id": "node/9381173343",
        "name": "江浦路",
        "name:en": "Jiangpu Road",
        "name:zh": "江浦路",
        "network": "上海地铁",
        "public_transport": "station",
        "railway": "station",
        "station": "subway",
        "subway": "yes",
        "wikidata": "Q877327"
      },
      "geometry": {
        "type": "Point",
        "coordinates": [
          121.5145022,
          31.2760613
        ]
      },
      "id": "node/9381173343"
    },
    {
      "type": "Feature",
      "properties": {
        "@id": "node/9381199385",
        "name": "抚顺路",
        "name:en": "Fushun Road",
        "name:zh": "抚顺路",
        "network": "上海地铁",
        "public_transport": "station",
        "railway": "station",
        "station": "subway",
        "subway": "yes",
        "wikidata": "Q877327"
      },
      "geometry": {
        "type": "Point",
        "coordinates": [
          121.5113331,
          31.2860526
        ]
      },
      "id": "node/9381199385"
    },
    {
      "type": "Feature",
      "properties": {
        "@id": "node/9381616131",
        "name": "国权路",
        "name:en": "Guoquan Road",
        "name:zh": "国权路",
        "network": "上海地铁",
        "public_transport": "station",
        "railway": "station",
        "station": "subway",
        "subway": "yes",
        "wikidata": "Q986047"
      },
      "geometry": {
        "type": "Point",
        "coordinates": [
          121.5068632,
          31.2912405
        ]
      },
      "id": "node/9381616131"
    },
    {
      "type": "Feature",
      "properties": {
        "@id": "node/9381674419",
        "name": "殷高路",
        "name:en": "Yingao Road",
        "name:zh": "殷高路",
        "network": "上海地铁",
        "public_transport": "station",
        "railway": "station",
        "station": "subway",
        "subway": "yes"
      },
      "geometry": {
        "type": "Point",
        "coordinates": [
          121.4909886,
          31.3235982
        ]
      },
      "id": "node/9381674419"
    },
    {
      "type": "Feature",
      "properties": {
        "@id": "node/9381675519",
        "name": "复旦大学",
        "name:en": "Fudan University",
        "name:zh": "复旦大学",
        "network": "上海地铁",
        "public_transport": "station",
        "railway": "station",
        "station": "subway",
        "subway": "yes",
        "wikidata": "Q62005434",
        "wikipedia": "zh:复旦大学站"
      },
      "geometry": {
        "type": "Point",
        "coordinates": [
          121.4953727,
          31.2982596
        ]
      },
      "id": "node/9381675519"
    },
    {
      "type": "Feature",
      "properties": {
        "@id": "node/9381681214",
        "name": "乐秀路",
        "name:en": "Lexiu Road",
        "name:zh": "乐秀路",
        "network": "上海地铁",
        "public_transport": "station",
        "railway": "station",
        "station": "subway",
        "subway": "yes"
      },
      "geometry": {
        "type": "Point",
        "coordinates": [
          121.3092454,
          31.2672762
        ]
      },
      "id": "node/9381681214"
    },
    {
      "type": "Feature",
      "properties": {
        "@id": "node/9381682722",
        "name": "长江南路",
        "name:en": "South Changjiang Road",
        "name:zh": "长江南路",
        "network": "上海地铁",
        "public_transport": "station",
        "railway": "station",
        "station": "subway",
        "subway": "yes"
      },
      "geometry": {
        "type": "Point",
        "coordinates": [
          121.4852715,
          31.3340096
        ]
      },
      "id": "node/9381682722"
    },
    {
      "type": "Feature",
      "properties": {
        "@id": "node/9381682828",
        "name": "上海财经大学",
        "name:en": "Shanghai University of Finance and Economics",
        "name:zh": "上海财经大学",
        "network": "上海地铁",
        "public_transport": "station",
        "railway": "station",
        "station": "subway",
        "subway": "yes"
      },
      "geometry": {
        "type": "Point",
        "coordinates": [
          121.4919019,
          31.3101177
        ]
      },
      "id": "node/9381682828"
    },
    {
      "type": "Feature",
      "properties": {
        "@id": "node/9381695518",
        "name": "长江南路",
        "name:en": "South Changjiang Road",
        "name:zh": "长江南路",
        "network": "上海地铁",
        "public_transport": "station",
        "railway": "station",
        "station": "subway",
        "subway": "yes"
      },
      "geometry": {
        "type": "Point",
        "coordinates": [
          121.4870873,
          31.33406
        ]
      },
      "id": "node/9381695518"
    },
    {
      "type": "Feature",
      "properties": {
        "@id": "node/9381740017",
        "name": "封浜",
        "name:en": "Fengbang",
        "name:zh": "封浜",
        "network": "上海地铁",
        "public_transport": "station",
        "railway": "station",
        "station": "subway",
        "subway": "yes"
      },
      "geometry": {
        "type": "Point",
        "coordinates": [
          121.2925591,
          31.269456
        ]
      },
      "id": "node/9381740017"
    },
    {
      "type": "Feature",
      "properties": {
        "@id": "node/9381749213",
        "name": "真光路",
        "name:en": "Zhenguang Road",
        "name:zh": "真光路",
        "network": "上海地铁",
        "public_transport": "station",
        "railway": "station",
        "station": "subway",
        "subway": "yes",
        "wheelchair": "yes"
      },
      "geometry": {
        "type": "Point",
        "coordinates": [
          121.3797034,
          31.2550635
        ]
      },
      "id": "node/9381749213"
    },
    {
      "type": "Feature",
      "properties": {
        "@id": "node/9381794201",
        "name": "定边路",
        "name:en": "Dingbian Road",
        "name:zh": "定边路",
        "network": "上海地铁",
        "public_transport": "station",
        "railway": "station",
        "station": "subway",
        "subway": "yes"
      },
      "geometry": {
        "type": "Point",
        "coordinates": [
          121.3577233,
          31.2582626
        ]
      },
      "id": "node/9381794201"
    },
    {
      "type": "Feature",
      "properties": {
        "@id": "node/9381799811",
        "name": "嘉怡路",
        "name:en": "Jiayi Road",
        "name:zh": "嘉怡路",
        "network": "上海地铁",
        "public_transport": "station",
        "railway": "station",
        "station": "subway",
        "subway": "yes"
      },
      "geometry": {
        "type": "Point",
        "coordinates": [
          121.3407328,
          31.2612945
        ]
      },
      "id": "node/9381799811"
    },
    {
      "type": "Feature",
      "properties": {
        "@id": "node/9381801902",
        "name": "铜川路",
        "name:en": "Tongchuan Road",
        "name:zh": "铜川路",
        "network": "上海地铁",
        "public_transport": "station",
        "railway": "station",
        "station": "subway",
        "subway": "yes"
      },
      "geometry": {
        "type": "Point",
        "coordinates": [
          121.3922945,
          31.2525788
        ]
      },
      "id": "node/9381801902"
    },
    {
      "type": "Feature",
      "properties": {
        "@id": "node/9381805998",
        "name": "真新新村",
        "name:en": "Zhenxin Xincun",
        "name:zh": "真新新村",
        "network": "上海地铁",
        "public_transport": "station",
        "railway": "station",
        "station": "subway",
        "subway": "yes"
      },
      "geometry": {
        "type": "Point",
        "coordinates": [
          121.3674467,
          31.2572465
        ]
      },
      "id": "node/9381805998"
    },
    {
      "type": "Feature",
      "properties": {
        "@id": "node/9381817045",
        "name": "临洮路",
        "name:en": "Lintao Road",
        "name:zh": "临洮路",
        "network": "上海地铁",
        "public_transport": "station",
        "railway": "station",
        "station": "subway",
        "subway": "yes"
      },
      "geometry": {
        "type": "Point",
        "coordinates": [
          121.3263327,
          31.2650033
        ]
      },
      "id": "node/9381817045"
    },
    {
      "type": "Feature",
      "properties": {
        "@id": "node/9381856640",
        "name": "中宁路",
        "name:en": "Zhongning Road",
        "name:zh": "中宁路",
        "network": "上海地铁",
        "public_transport": "station",
        "railway": "station",
        "station": "subway",
        "subway": "yes"
      },
      "geometry": {
        "type": "Point",
        "coordinates": [
          121.4100155,
          31.2469107
        ]
      },
      "id": "node/9381856640"
    },
    {
      "type": "Feature",
      "properties": {
        "@id": "node/9381867506",
        "name": "真如",
        "name:en": "Zhenru",
        "name:zh": "真如",
        "name:zh-Hans": "真如",
        "name:zh-Hant": "真如",
        "network": "上海地铁",
        "public_transport": "station",
        "railway": "station",
        "station": "subway",
        "subway": "yes",
        "wheelchair": "yes",
        "wikidata": "Q6121354",
        "wikipedia": "zh:真如站"
      },
      "geometry": {
        "type": "Point",
        "coordinates": [
          121.4019002,
          31.2524377
        ]
      },
      "id": "node/9381867506"
    },
    {
      "type": "Feature",
      "properties": {
        "@id": "node/9381885715",
        "name": "曹杨路",
        "name:en": "Caoyang Road",
        "name:zh": "曹杨路",
        "network": "上海地铁",
        "public_transport": "station",
        "railway": "station",
        "station": "subway",
        "subway": "yes"
      },
      "geometry": {
        "type": "Point",
        "coordinates": [
          121.41312,
          31.2411734
        ]
      },
      "id": "node/9381885715"
    },
    {
      "type": "Feature",
      "properties": {
        "@id": "node/9381885716",
        "name": "曹杨路",
        "name:en": "Caoyang Road",
        "name:zh": "曹杨路",
        "name:zh-Hans": "曹杨路",
        "name:zh-Hant": "曹楊路",
        "network": "上海地铁",
        "public_transport": "station",
        "railway": "station",
        "station": "subway",
        "subway": "yes",
        "wheelchair": "yes",
        "wikidata": "Q2092882",
        "wikipedia": "zh:曹杨路站"
      },
      "geometry": {
        "type": "Point",
        "coordinates": [
          121.4170297,
          31.2416559
        ]
      },
      "id": "node/9381885716"
    },
    {
      "type": "Feature",
      "properties": {
        "@id": "node/9381916526",
        "name": "武宁路",
        "name:en": "Wuning Road",
        "name:zh": "武宁路",
        "network": "上海地铁",
        "public_transport": "station",
        "railway": "station",
        "station": "subway",
        "subway": "yes",
        "toilets:wheelchair": "no",
        "wheelchair": "yes",
        "wikidata": "Q11124038"
      },
      "geometry": {
        "type": "Point",
        "coordinates": [
          121.4264922,
          31.2347687
        ]
      },
      "id": "node/9381916526"
    },
    {
      "type": "Feature",
      "properties": {
        "@id": "node/9381931089",
        "name": "武定路",
        "name:en": "Wuding Road",
        "name:zh": "武定路",
        "network": "上海地铁",
        "public_transport": "station",
        "railway": "station",
        "station": "subway",
        "subway": "yes",
        "toilets:wheelchair": "no",
        "wheelchair": "yes"
      },
      "geometry": {
        "type": "Point",
        "coordinates": [
          121.4311464,
          31.2294501
        ]
      },
      "id": "node/9381931089"
    },
    {
      "type": "Feature",
      "properties": {
        "@id": "node/9381941590",
        "name": "豫园",
        "name:en": "Yuyuan Garden",
        "name:ko": "예원",
        "name:zh": "豫园",
        "name:zh-Hans": "豫园",
        "name:zh-Hant": "豫園",
        "network": "上海地铁",
        "public_transport": "station",
        "railway": "station",
        "station": "subway",
        "subway": "yes",
        "wheelchair": "yes",
        "wikidata": "Q685103",
        "wikipedia": "zh:豫园站"
      },
      "geometry": {
        "type": "Point",
        "coordinates": [
          121.4842395,
          31.2314615
        ]
      },
      "id": "node/9381941590"
    },
    {
      "type": "Feature",
      "properties": {
        "@id": "node/9381946298",
        "name": "静安寺",
        "name:en": "Jing'an Temple",
        "name:zh": "静安寺",
        "network": "上海地铁",
        "public_transport": "station",
        "railway": "station",
        "station": "subway",
        "subway": "yes"
      },
      "geometry": {
        "type": "Point",
        "coordinates": [
          121.4407549,
          31.2237595
        ]
      },
      "id": "node/9381946298"
    },
    {
      "type": "Feature",
      "properties": {
        "@id": "node/9381954260",
        "alt_name": "黄陂南路",
        "alt_name:en": "South Huangpi Road",
        "alt_name:zh": "黄陂南路",
        "name": "一大会址·黄陂南路",
        "name:en": "Site of the First CPC National Congress·South Huangpi Road",
        "name:zh": "一大会址·黄陂南路",
        "name:zh-Hans": "一大会址·黄陂南路",
        "name:zh-Hant": "一大會址·黃陂南路",
        "network": "上海地铁",
        "network:en": "Shanghai Metro",
        "public_transport": "station",
        "railway": "station",
        "station": "subway",
        "subway": "yes",
        "wheelchair": "yes",
        "wikidata": "Q2383478",
        "wikipedia": "zh:一大会址·黄陂南路站"
      },
      "geometry": {
        "type": "Point",
        "coordinates": [
          121.4679564,
          31.2256562
        ]
      },
      "id": "node/9381954260"
    },
    {
      "type": "Feature",
      "properties": {
        "@id": "node/9381954263",
        "name": "大世界",
        "name:en": "Dashijie",
        "name:zh": "大世界",
        "name:zh-Hans": "大世界",
        "name:zh-Hant": "大世界",
        "network": "上海地铁",
        "public_transport": "station",
        "railway": "station",
        "station": "subway",
        "subway": "yes",
        "wikidata": "Q31005",
        "wikipedia": "zh:大世界站 (上海市)"
      },
      "geometry": {
        "type": "Point",
        "coordinates": [
          121.4751877,
          31.2286365
        ]
      },
      "id": "node/9381954263"
    },
    {
      "type": "Feature",
      "properties": {
        "@id": "node/9381985702",
        "name": "陆家嘴",
        "name:en": "Lujiazui",
        "name:zh": "陆家嘴",
        "name:zh-Hans": "陆家嘴",
        "name:zh-Hant": "陸家嘴",
        "network": "上海地铁",
        "public_transport": "station",
        "railway": "station",
        "station": "subway",
        "subway": "yes",
        "wikipedia": "zh:陸家嘴站"
      },
      "geometry": {
        "type": "Point",
        "coordinates": [
          121.4979194,
          31.2369216
        ]
      },
      "id": "node/9381985702"
    },
    {
      "type": "Feature",
      "properties": {
        "@id": "node/9382030652",
        "name": "源深路",
        "name:en": "Yuanshen Road",
        "name:zh": "源深路",
        "network": "上海地铁",
        "public_transport": "station",
        "railway": "station",
        "station": "subway",
        "subway": "yes"
      },
      "geometry": {
        "type": "Point",
        "coordinates": [
          121.5264996,
          31.2433745
        ]
      },
      "id": "node/9382030652"
    },
    {
      "type": "Feature",
      "properties": {
        "@id": "node/9382050541",
        "name": "浦东南路",
        "name:en": "South Pudong Road",
        "name:zh": "浦东南路",
        "name:zh-Hans": "浦东南路",
        "name:zh-Hant": "浦東南路",
        "network": "上海地铁",
        "public_transport": "station",
        "railway": "station",
        "station": "subway",
        "subway": "yes",
        "wheelchair": "yes"
      },
      "geometry": {
        "type": "Point",
        "coordinates": [
          121.507703,
          31.2404473
        ]
      },
      "id": "node/9382050541"
    },
    {
      "type": "Feature",
      "properties": {
        "@id": "node/9382055039",
        "name": "浦东大道",
        "name:en": "Pudong Avenue",
        "name:zh": "浦东大道",
        "name:zh-Hans": "浦东大道",
        "name:zh-Hant": "浦東大道",
        "network": "上海地铁",
        "public_transport": "station",
        "railway": "station",
        "station": "subway",
        "subway": "yes",
        "wikidata": "Q856207",
        "wikipedia": "zh:浦东大道站"
      },
      "geometry": {
        "type": "Point",
        "coordinates": [
          121.5149488,
          31.2424141
        ]
      },
      "id": "node/9382055039"
    },
    {
      "type": "Feature",
      "properties": {
        "@id": "node/9382067085",
        "name": "黄杨路",
        "name:en": "Huangyang Road",
        "name:zh": "黄杨路",
        "network": "上海地铁",
        "public_transport": "station",
        "railway": "station",
        "station": "subway",
        "subway": "yes",
        "wheelchair": "yes"
      },
      "geometry": {
        "type": "Point",
        "coordinates": [
          121.5862834,
          31.2359808
        ]
      },
      "id": "node/9382067085"
    },
    {
      "type": "Feature",
      "properties": {
        "@id": "node/9382076276",
        "name": "歇浦路",
        "name:en": "Xiepu Road",
        "name:zh": "歇浦路",
        "network": "上海地铁",
        "public_transport": "station",
        "railway": "station",
        "station": "subway",
        "subway": "yes"
      },
      "geometry": {
        "type": "Point",
        "coordinates": [
          121.547042,
          31.2526656
        ]
      },
      "id": "node/9382076276"
    },
    {
      "type": "Feature",
      "properties": {
        "@id": "node/9382078474",
        "name": "云顺路",
        "name:en": "Yunshun Road",
        "name:zh": "云顺路",
        "network": "上海地铁",
        "public_transport": "station",
        "railway": "station",
        "station": "subway",
        "subway": "yes",
        "wheelchair": "yes"
      },
      "geometry": {
        "type": "Point",
        "coordinates": [
          121.5964372,
          31.2392917
        ]
      },
      "id": "node/9382078474"
    },
    {
      "type": "Feature",
      "properties": {
        "@id": "node/9382079661",
        "name": "蓝天路",
        "name:en": "Lantian Road",
        "name:zh": "蓝天路",
        "network": "上海地铁",
        "operator": "申通地铁集团",
        "public_transport": "station",
        "railway": "station",
        "station": "subway",
        "subway": "yes",
        "wheelchair": "yes",
        "wikidata": "Q46993434"
      },
      "geometry": {
        "type": "Point",
        "coordinates": [
          121.5738977,
          31.2429529
        ]
      },
      "id": "node/9382079661"
    },
    {
      "type": "Feature",
      "properties": {
        "@id": "node/9382082435",
        "name": "云山路",
        "name:en": "Yunshan Road",
        "name:zh": "云山路",
        "network": "上海地铁",
        "public_transport": "station",
        "railway": "station",
        "station": "subway",
        "subway": "yes",
        "wheelchair": "yes",
        "wikidata": "Q985976"
      },
      "geometry": {
        "type": "Point",
        "coordinates": [
          121.5669032,
          31.2532335
        ]
      },
      "id": "node/9382082435"
    },
    {
      "type": "Feature",
      "properties": {
        "@id": "node/9382082818",
        "name": "龙居路",
        "name:en": "Longju Road",
        "name:zh": "龙居路",
        "network": "上海地铁",
        "public_transport": "station",
        "railway": "station",
        "station": "subway",
        "subway": "yes"
      },
      "geometry": {
        "type": "Point",
        "coordinates": [
          121.5547025,
          31.2594736
        ]
      },
      "id": "node/9382082818"
    },
    {
      "type": "Feature",
      "properties": {
        "@id": "node/9382098491",
        "name": "浦东足球场",
        "name:en": "Pudong Football Stadium",
        "name:zh": "浦东足球场",
        "network": "上海地铁",
        "public_transport": "station",
        "railway": "station",
        "station": "subway",
        "subway": "yes",
        "wheelchair": "yes"
      },
      "geometry": {
        "type": "Point",
        "coordinates": [
          121.6107535,
          31.2437063
        ]
      },
      "id": "node/9382098491"
    },
    {
      "type": "Feature",
      "properties": {
        "@id": "node/9382102244",
        "name": "金粤路",
        "name:en": "Jinyue Road",
        "name:zh": "金粤路",
        "network": "上海地铁",
        "public_transport": "station",
        "railway": "station",
        "station": "subway",
        "subway": "yes",
        "wheelchair": "yes"
      },
      "geometry": {
        "type": "Point",
        "coordinates": [
          121.6247466,
          31.2443209
        ]
      },
      "id": "node/9382102244"
    },
    {
      "type": "Feature",
      "properties": {
        "@id": "node/9382111954",
        "name": "桂桥路",
        "name:en": "Guiqiao Road",
        "name:zh": "桂桥路",
        "network": "上海地铁",
        "public_transport": "station",
        "railway": "station",
        "station": "subway",
        "subway": "yes",
        "wheelchair": "yes"
      },
      "geometry": {
        "type": "Point",
        "coordinates": [
          121.6309638,
          31.2526202
        ]
      },
      "id": "node/9382111954"
    },
    {
      "type": "Feature",
      "properties": {
        "@id": "node/9455756755",
        "name": "龙阳路",
        "name:en": "Longyang Road",
        "name:ko": "롱양루",
        "name:zh": "龙阳路",
        "network": "上海地铁",
        "public_transport": "station",
        "railway": "station",
        "station": "subway",
        "subway": "yes",
        "wikidata": "Q1073601",
        "wikipedia": "zh:龙阳路站"
      },
      "geometry": {
        "type": "Point",
        "coordinates": [
          121.553356,
          31.2041627
        ]
      },
      "id": "node/9455756755"
    },
    {
      "type": "Feature",
      "properties": {
        "@id": "node/9455756756",
        "name": "龙阳路",
        "name:en": "Longyang Road",
        "name:ko": "롱양루",
        "name:zh": "龙阳路",
        "network": "上海地铁",
        "public_transport": "station",
        "railway": "station",
        "station": "subway",
        "subway": "yes",
        "wikidata": "Q1073601",
        "wikipedia": "zh:龙阳路站"
      },
      "geometry": {
        "type": "Point",
        "coordinates": [
          121.5536268,
          31.2056725
        ]
      },
      "id": "node/9455756756"
    },
    {
      "type": "Feature",
      "properties": {
        "@id": "node/9455756757",
        "name": "龙阳路",
        "name:en": "Longyang Road",
        "name:ko": "롱양루",
        "name:zh": "龙阳路",
        "network": "上海地铁",
        "public_transport": "station",
        "railway": "station",
        "station": "subway",
        "subway": "yes",
        "wikidata": "Q1073601",
        "wikipedia": "zh:龙阳路站"
      },
      "geometry": {
        "type": "Point",
        "coordinates": [
          121.5524565,
          31.2030494
        ]
      },
      "id": "node/9455756757"
    },
    {
      "type": "Feature",
      "properties": {
        "@id": "node/9836022368",
        "name": "江湾镇",
        "name:en": "Jiangwan Town",
        "name:zh": "江湾镇",
        "network": "上海地铁",
        "public_transport": "station",
        "railway": "station",
        "station": "subway",
        "subway": "yes",
        "wikidata": "Q855489"
      },
      "geometry": {
        "type": "Point",
        "coordinates": [
          121.4805955,
          31.3074899
        ]
      },
      "id": "node/9836022368"
    },
    {
      "type": "Feature",
      "properties": {
        "@id": "node/11201862443",
        "name": "天潼路",
        "name:en": "Tiantong Road",
        "name:zh": "天潼路",
        "network": "上海地铁",
        "note": "12号线 - For Line 12",
        "public_transport": "station",
        "railway": "station",
        "station": "subway",
        "subway": "yes"
      },
      "geometry": {
        "type": "Point",
        "coordinates": [
          121.4779624,
          31.2457831
        ]
      },
      "id": "node/11201862443"
    },
    {
      "type": "Feature",
      "properties": {
        "@id": "node/11216978072",
        "name": "江苏路",
        "name:en": "Jiangsu Road",
        "network": "上海地铁",
        "note": "2号线 - For Line 2 - 请不要合并",
        "public_transport": "station",
        "railway": "station",
        "station": "subway",
        "subway": "yes"
      },
      "geometry": {
        "type": "Point",
        "coordinates": [
          121.427011,
          31.2214433
        ]
      },
      "id": "node/11216978072"
    },
    {
      "type": "Feature",
      "properties": {
        "@id": "node/12042988433",
        "name": "上海国际旅游度假区",
        "name:en": "Shanghai International Resort",
        "name:zh": "上海国际旅游度假区",
        "network": "上海市域铁路",
        "public_transport": "station",
        "railway": "station",
        "station": "subway",
        "subway": "yes"
      },
      "geometry": {
        "type": "Point",
        "coordinates": [
          121.6759116,
          31.1585237
        ]
      },
      "id": "node/12042988433"
    },
    {
      "type": "Feature",
      "properties": {
        "@id": "node/12042988434",
        "name": "康桥东",
        "name:en": "East Kangqiao",
        "name:zh": "康桥东",
        "network": "上海市域铁路",
        "public_transport": "station",
        "railway": "station",
        "station": "subway",
        "subway": "yes"
      },
      "geometry": {
        "type": "Point",
        "coordinates": [
          121.611222,
          31.149121
        ]
      },
      "id": "node/12042988434"
    },
    {
      "type": "Feature",
      "properties": {
        "@id": "node/12042988435",
        "name": "三林南",
        "name:en": "South Sanlin",
        "name:zh": "三林南",
        "network": "上海市域铁路",
        "public_transport": "station",
        "railway": "station",
        "station": "subway",
        "subway": "yes"
      },
      "geometry": {
        "type": "Point",
        "coordinates": [
          121.4833682,
          31.1281894
        ]
      },
      "id": "node/12042988435"
    },
    {
      "type": "Feature",
      "properties": {
        "@id": "node/12042988436",
        "name": "景洪路",
        "name:en": "Jinghong Road",
        "name:zh": "景洪路",
        "network": "上海市域铁路",
        "public_transport": "station",
        "railway": "station",
        "station": "subway",
        "subway": "yes"
      },
      "geometry": {
        "type": "Point",
        "coordinates": [
          121.4401408,
          31.1117444
        ]
      },
      "id": "node/12042988436"
    },
    {
      "type": "Feature",
      "properties": {
        "@id": "node/12103886408",
        "name": "中春路",
        "name:en": "Zhongchun Road",
        "network": "上海市域铁路",
        "public_transport": "station",
        "railway": "station",
        "station": "subway",
        "subway": "yes",
        "wikidata": "Q986163"
      },
      "geometry": {
        "type": "Point",
        "coordinates": [
          121.3302003,
          31.1516826
        ]
      },
      "id": "node/12103886408"
    },
    {
      "type": "Feature",
      "properties": {
        "@id": "node/12140814900",
        "construction": "station",
        "name": "长兴岛",
        "name:en": "Changxing Island",
        "public_transport": "station",
        "railway": "station",
        "station": "subway",
        "subway": "yes"
      },
      "geometry": {
        "type": "Point",
        "coordinates": [
          121.7179172,
          31.3930867
        ]
      },
      "id": "node/12140814900"
    },
    {
      "type": "Feature",
      "properties": {
        "@id": "node/12140828479",
        "construction": "station",
        "name": "陈家镇",
        "name:en": "Chenjia Town",
        "network": "上海地铁",
        "public_transport": "station",
        "railway": "station",
        "station": "subway",
        "subway": "yes"
      },
      "geometry": {
        "type": "Point",
        "coordinates": [
          121.7882001,
          31.4927315
        ]
      },
      "id": "node/12140828479"
    },
    {
      "type": "Feature",
      "properties": {
        "@id": "node/12140828497",
        "construction": "station",
        "name": "申江路",
        "name:en": "Shenjiang Road",
        "network": "上海地铁",
        "public_transport": "station",
        "railway": "station",
        "station": "subway",
        "subway": "yes"
      },
      "geometry": {
        "type": "Point",
        "coordinates": [
          121.6210608,
          31.282098
        ]
      },
      "id": "node/12140828497"
    },
    {
      "type": "Feature",
      "properties": {
        "@id": "node/12140828498",
        "construction": "station",
        "name": "金吉路",
        "name:en": "Jinji Road",
        "network": "上海地铁",
        "public_transport": "station",
        "railway": "station",
        "station": "subway",
        "subway": "yes"
      },
      "geometry": {
        "type": "Point",
        "coordinates": [
          121.6210833,
          31.2664472
        ]
      },
      "id": "node/12140828498"
    },
    {
      "type": "Feature",
      "properties": {
        "@id": "node/12144502308",
        "construction": "station",
        "name": "高宝路",
        "name:en": "Gaobao Road",
        "network": "上海地铁",
        "public_transport": "station",
        "railway": "station",
        "station": "subway",
        "subway": "yes"
      },
      "geometry": {
        "type": "Point",
        "coordinates": [
          121.6210656,
          31.2925132
        ]
      },
      "id": "node/12144502308"
    },
    {
      "type": "Feature",
      "properties": {
        "@id": "node/12144502309",
        "construction": "station",
        "name": "凌空北路",
        "name:en": "North Lingkong Road",
        "network": "上海地铁",
        "public_transport": "station",
        "railway": "station",
        "station": "subway",
        "subway": "yes"
      },
      "geometry": {
        "type": "Point",
        "coordinates": [
          121.6681085,
          31.2957169
        ]
      },
      "id": "node/12144502309"
    },
    {
      "type": "Feature",
      "properties": {
        "@id": "node/12210717559",
        "name": "康恒路",
        "name:en": "Kangheng Road",
        "public_transport": "station",
        "railway": "station",
        "station": "subway",
        "subway": "yes",
        "wikidata": "Q10871571"
      },
      "geometry": {
        "type": "Point",
        "coordinates": [
          121.5492931,
          31.1564411
        ]
      },
      "id": "node/12210717559"
    },
    {
      "type": "Feature",
      "properties": {
        "@id": "node/12222691009",
        "construction": "station",
        "name": "东靖路",
        "name:en": "Dongjing Road",
        "public_transport": "station",
        "railway": "station",
        "station": "subway",
        "subway": "yes"
      },
      "geometry": {
        "type": "Point",
        "coordinates": [
          121.5864997,
          31.2937598
        ]
      },
      "id": "node/12222691009"
    },
    {
      "type": "Feature",
      "properties": {
        "@id": "node/12222691459",
        "construction": "station",
        "name": "杨高北路",
        "name:en": "North Yanggao Road",
        "network": "上海地铁",
        "public_transport": "station",
        "railway": "station",
        "station": "subway",
        "subway": "yes"
      },
      "geometry": {
        "type": "Point",
        "coordinates": [
          121.6000944,
          31.2829683
        ]
      },
      "id": "node/12222691459"
    },
    {
      "type": "Feature",
      "properties": {
        "@id": "node/12222691460",
        "construction": "station",
        "name": "凌河路",
        "name:en": "Linghe Road",
        "network": "上海地铁",
        "public_transport": "station",
        "railway": "station",
        "station": "subway",
        "subway": "yes"
      },
      "geometry": {
        "type": "Point",
        "coordinates": [
          121.6000899,
          31.2742199
        ]
      },
      "id": "node/12222691460"
    },
    {
      "type": "Feature",
      "properties": {
        "@id": "node/12222691461",
        "name": "金桥",
        "name:en": "Jinqiao",
        "network": "上海地铁",
        "public_transport": "station",
        "railway": "station",
        "station": "subway",
        "subway": "yes"
      },
      "geometry": {
        "type": "Point",
        "coordinates": [
          121.6032177,
          31.2614304
        ]
      },
      "id": "node/12222691461"
    },
    {
      "type": "Feature",
      "properties": {
        "@id": "node/12222691462",
        "construction": "station",
        "name": "云桥路",
        "name:en": "Yunqiao Road",
        "network": "上海地铁",
        "public_transport": "station",
        "railway": "station",
        "station": "subway",
        "subway": "yes"
      },
      "geometry": {
        "type": "Point",
        "coordinates": [
          121.6108993,
          31.2511055
        ]
      },
      "id": "node/12222691462"
    },
    {
      "type": "Feature",
      "properties": {
        "@id": "node/12222691463",
        "construction": "station",
        "name": "浦东足球场",
        "name:en": "Pudong Football Stadium",
        "network": "上海地铁",
        "public_transport": "station",
        "railway": "station",
        "station": "subway",
        "subway": "yes"
      },
      "geometry": {
        "type": "Point",
        "coordinates": [
          121.6127278,
          31.2421998
        ]
      },
      "id": "node/12222691463"
    },
    {
      "type": "Feature",
      "properties": {
        "@id": "node/12222691483",
        "construction": "station",
        "name": "龙东大道",
        "name:en": "Longdong Avenue",
        "network": "上海地铁",
        "public_transport": "station",
        "railway": "station",
        "station": "subway",
        "subway": "yes"
      },
      "geometry": {
        "type": "Point",
        "coordinates": [
          121.6126851,
          31.2228632
        ]
      },
      "id": "node/12222691483"
    },
    {
      "type": "Feature",
      "properties": {
        "@id": "node/12222691484",
        "construction": "station",
        "name": "广兰路",
        "name:en": "Guanglan Road",
        "network": "上海地铁",
        "public_transport": "station",
        "railway": "station",
        "station": "subway",
        "subway": "yes"
      },
      "geometry": {
        "type": "Point",
        "coordinates": [
          121.6137832,
          31.2126248
        ]
      },
      "id": "node/12222691484"
    },
    {
      "type": "Feature",
      "properties": {
        "@id": "node/12222691485",
        "construction": "station",
        "name": "高斯路",
        "name:en": "Gaosi Road",
        "network": "上海地铁",
        "public_transport": "station",
        "railway": "station",
        "station": "subway",
        "subway": "yes"
      },
      "geometry": {
        "type": "Point",
        "coordinates": [
          121.6090151,
          31.2021249
        ]
      },
      "id": "node/12222691485"
    },
    {
      "type": "Feature",
      "properties": {
        "@id": "node/12222691486",
        "construction": "station",
        "name": "张衡路",
        "name:en": "Zhangheng Road",
        "network": "上海地铁",
        "public_transport": "station",
        "railway": "station",
        "station": "subway",
        "subway": "yes"
      },
      "geometry": {
        "type": "Point",
        "coordinates": [
          121.6080916,
          31.1940038
        ]
      },
      "id": "node/12222691486"
    },
    {
      "type": "Feature",
      "properties": {
        "@id": "node/12222691487",
        "construction": "station",
        "name": "军民路",
        "name:en": "Junmin Road",
        "network": "上海地铁",
        "public_transport": "station",
        "railway": "station",
        "station": "subway",
        "subway": "yes"
      },
      "geometry": {
        "type": "Point",
        "coordinates": [
          121.6109593,
          31.1763898
        ]
      },
      "id": "node/12222691487"
    },
    {
      "type": "Feature",
      "properties": {
        "@id": "node/12222691488",
        "construction": "station",
        "name": "康南路",
        "name:en": "Kangnan Road",
        "network": "上海地铁",
        "public_transport": "station",
        "railway": "station",
        "station": "subway",
        "subway": "yes"
      },
      "geometry": {
        "type": "Point",
        "coordinates": [
          121.6131037,
          31.1690451
        ]
      },
      "id": "node/12222691488"
    },
    {
      "type": "Feature",
      "properties": {
        "@id": "node/12222691490",
        "construction": "station",
        "name": "康桥东",
        "name:en": "East Kangqiao",
        "network": "上海地铁",
        "public_transport": "station",
        "railway": "station",
        "station": "subway",
        "subway": "yes"
      },
      "geometry": {
        "type": "Point",
        "coordinates": [
          121.6127875,
          31.1484341
        ]
      },
      "id": "node/12222691490"
    },
    {
      "type": "Feature",
      "properties": {
        "@id": "node/12222691491",
        "construction": "station",
        "name": "申江南路",
        "name:en": "South Shenjiang Road",
        "network": "上海地铁",
        "public_transport": "station",
        "railway": "station",
        "station": "subway",
        "subway": "yes"
      },
      "geometry": {
        "type": "Point",
        "coordinates": [
          121.6213032,
          31.1406664
        ]
      },
      "id": "node/12222691491"
    },
    {
      "type": "Feature",
      "properties": {
        "@id": "node/12222691492",
        "construction": "station",
        "name": "唐黄路",
        "name:en": "Tanghuang Road",
        "network": "上海地铁",
        "public_transport": "station",
        "railway": "station",
        "station": "subway",
        "subway": "yes"
      },
      "geometry": {
        "type": "Point",
        "coordinates": [
          121.6781147,
          31.1454455
        ]
      },
      "id": "node/12222691492"
    },
    {
      "type": "Feature",
      "properties": {
        "@id": "node/12222691493",
        "construction": "station",
        "name": "六陈路",
        "name:en": "Liuchen Road",
        "network": "上海地铁",
        "public_transport": "station",
        "railway": "station",
        "station": "subway",
        "subway": "yes"
      },
      "geometry": {
        "type": "Point",
        "coordinates": [
          121.7059653,
          31.1527907
        ]
      },
      "id": "node/12222691493"
    },
    {
      "type": "Feature",
      "properties": {
        "@id": "node/12222691494",
        "construction": "station",
        "name": "施新路",
        "name:en": "Shixin Road",
        "network": "上海地铁",
        "public_transport": "station",
        "railway": "station",
        "station": "subway",
        "subway": "yes"
      },
      "geometry": {
        "type": "Point",
        "coordinates": [
          121.7535442,
          31.1514548
        ]
      },
      "id": "node/12222691494"
    },
    {
      "type": "Feature",
      "properties": {
        "@id": "node/12222691495",
        "construction": "station",
        "name": "闻居路",
        "name:en": "Wenju Road",
        "network": "上海地铁",
        "public_transport": "station",
        "railway": "station",
        "station": "subway",
        "subway": "yes"
      },
      "geometry": {
        "type": "Point",
        "coordinates": [
          121.7596038,
          31.1325925
        ]
      },
      "id": "node/12222691495"
    },
    {
      "type": "Feature",
      "properties": {
        "@id": "node/12222691496",
        "construction": "station",
        "name": "金闻路",
        "name:en": "Jinwen Road",
        "network": "上海地铁",
        "public_transport": "station",
        "railway": "station",
        "station": "subway",
        "subway": "yes"
      },
      "geometry": {
        "type": "Point",
        "coordinates": [
          121.7690328,
          31.1195899
        ]
      },
      "id": "node/12222691496"
    },
    {
      "type": "Feature",
      "properties": {
        "@id": "node/12222691497",
        "construction": "station",
        "name": "上海东站",
        "name:en": "Shanghai East Railway Station",
        "network": "上海地铁",
        "public_transport": "station",
        "railway": "station",
        "station": "subway",
        "subway": "yes"
      },
      "geometry": {
        "type": "Point",
        "coordinates": [
          121.7776989,
          31.1216364
        ]
      },
      "id": "node/12222691497"
    },
    {
      "type": "Feature",
      "properties": {
        "@id": "node/12291519358",
        "name": "芳乐路",
        "public_transport": "station",
        "railway": "station",
        "station": "subway",
        "subway": "yes"
      },
      "geometry": {
        "type": "Point",
        "coordinates": [
          121.2670666,
          31.2222835
        ]
      },
      "id": "node/12291519358"
    },
    {
      "type": "Feature",
      "properties": {
        "@id": "node/12291519359",
        "name": "天山路",
        "public_transport": "station",
        "railway": "station",
        "station": "subway",
        "subway": "yes"
      },
      "geometry": {
        "type": "Point",
        "coordinates": [
          121.3181807,
          31.2219774
        ]
      },
      "id": "node/12291519359"
    },
    {
      "type": "Feature",
      "properties": {
        "@id": "node/12291519369",
        "name": "赵重公路",
        "public_transport": "station",
        "railway": "station",
        "station": "subway",
        "subway": "yes"
      },
      "geometry": {
        "type": "Point",
        "coordinates": [
          121.1795696,
          31.1917421
        ]
      },
      "id": "node/12291519369"
    },
    {
      "type": "Feature",
      "properties": {
        "@id": "node/12291575023",
        "name": "蟠祥路",
        "public_transport": "station",
        "railway": "station",
        "station": "subway",
        "subway": "yes"
      },
      "geometry": {
        "type": "Point",
        "coordinates": [
          121.2836642,
          31.1841726
        ]
      },
      "id": "node/12291575023"
    },
    {
      "type": "Feature",
      "properties": {
        "@id": "node/12292008429",
        "name": "国家会展中心",
        "public_transport": "station",
        "railway": "station",
        "station": "subway",
        "subway": "yes"
      },
      "geometry": {
        "type": "Point",
        "coordinates": [
          121.291353,
          31.1927613
        ]
      },
      "id": "node/12292008429"
    },
    {
      "type": "Feature",
      "properties": {
        "@id": "node/12292008430",
        "name": "运乐路",
        "public_transport": "station",
        "railway": "station",
        "station": "subway",
        "subway": "yes"
      },
      "geometry": {
        "type": "Point",
        "coordinates": [
          121.2795703,
          31.205585
        ]
      },
      "id": "node/12292008430"
    },
    {
      "type": "Feature",
      "properties": {
        "@id": "node/12292008431",
        "name": "季乐路",
        "public_transport": "station",
        "railway": "station",
        "station": "subway",
        "subway": "yes"
      },
      "geometry": {
        "type": "Point",
        "coordinates": [
          121.2730963,
          31.2140738
        ]
      },
      "id": "node/12292008431"
    },
    {
      "type": "Feature",
      "properties": {
        "@id": "node/12292008432",
        "name": "芳乐路",
        "public_transport": "station",
        "railway": "station",
        "station": "subway",
        "subway": "yes"
      },
      "geometry": {
        "type": "Point",
        "coordinates": [
          121.268812,
          31.2224698
        ]
      },
      "id": "node/12292008432"
    },
    {
      "type": "Feature",
      "properties": {
        "@id": "node/12292008433",
        "name": "纪翟路",
        "public_transport": "station",
        "railway": "station",
        "station": "subway",
        "subway": "yes"
      },
      "geometry": {
        "type": "Point",
        "coordinates": [
          121.2744212,
          31.2321118
        ]
      },
      "id": "node/12292008433"
    },
    {
      "type": "Feature",
      "properties": {
        "@id": "node/12303959813",
        "name": "上海大学",
        "name:en": "Shanghai University",
        "name:zh": "上海大学",
        "name:zh-Hant": "上海大學",
        "operator": "上海地铁",
        "public_transport": "station",
        "railway": "station",
        "station": "subway",
        "subway": "yes",
        "wikidata": "Q877282"
      },
      "geometry": {
        "type": "Point",
        "coordinates": [
          121.3839347,
          31.3223633
        ]
      },
      "id": "node/12303959813"
    },
    {
      "type": "Feature",
      "properties": {
        "@id": "node/12325363360",
        "construction:public_transport": "station",
        "construction:railway": "station",
        "name": "虹桥2号航站楼",
        "name:en": "Hongqiao Airport Terminal 2",
        "name:zh": "虹桥2号航站楼",
        "name:zh-Hans": "虹桥2号航站楼",
        "name:zh-Hant": "虹橋2號航站樓",
        "network": "上海市域铁路",
        "operator": "上海申通地铁集团有限公司;中国铁路上海局集团有限公司",
        "public_transport": "station",
        "railway": "station",
        "station": "subway",
        "subway": "yes",
        "train": "yes",
        "wikidata": "Q122227045",
        "wikipedia": "zh:虹桥2号航站楼站 (市域铁路)"
      },
      "geometry": {
        "type": "Point",
        "coordinates": [
          121.3198748,
          31.196134
        ]
      },
      "id": "node/12325363360"
    }
  ]
}